Code;Name;Cntry;Addr_st;Zip;City;Phone_num;Email;DOB;Cust_type
001;Mr Destin Jones;MSR;Richmond Hill 10;99671;Stebbins;048-288-966;DJones@gmail.com;1952-09-15;prospect
0010;Mrs Alice Phillips;MTQ;East Calle Primera 47;04642;Harborside;818-877-478;APhillips@yahoo.com;1954-07-02;customer
0011;Ms Katie Walker;LBY;Castillo Drive 8;30021;Clarkston;;KWalker@msn.com;1969-01-01;beneficiary
0012;Ms Samantha Evans;NRU;East Fry Blvd. 25;60417;Crete;;SEvans@gmail.com;1992-11-05;customer
0013;Mr Derick Bennett;DJI;E Fowler Avenue 38;12929;Dannemora;391-849-582;DBennett@yahoo.com;1962-09-17;prospect
0014;Ms Chelsea Jones;PAN;San Simeon 46;14433;Clyde;;CJones@yahoo.com;1999-05-28;prospect
0015;Mr Drake White;SGS;North Ventu Park Road 12;80509;Colorado Springs;708-140-048;DWhite@gmail.com;1956-03-21;customer
0016;Mrs Imogen Flores;AUT;Santa Rosa North 25;72088;Fairfield Bay;577-849-854;IFlores@yahoo.com;1980-05-31;customer
0017;Mrs Morgan Ross;ROU;Fontaine Road 12;03576;Colebrook;;MRoss@yahoo.com;1964-04-25;customer
0018;Mr Armando Cook;LUX;Burnett Road 22;64071;Mayview;174-750-768;ACook@gmail.com;1953-10-20;prospect
0019;Mrs Paige Brown;UGA;Carpinteria Avenue 3;65648;Fair Grove;;PBrown@gmail.com;1985-03-25;prospect
002;Mr Justice James;BMU;S Rustle St 49;37348;Kelso;;JJames@gmail.com;1974-10-05;beneficiary
0020;Ms Libby Williams;TKL;Santa Rosa North 42;49840;Gulliver;;LWilliams@gmail.com;1958-03-21;beneficiary
0021;Mr Axel Anderson;NAM;North Broadway Street 41;38459;Frankewing;606-947-958;AAnderson@gmail.com;1955-10-07;prospect
0022;Mr Dillan Phillips;NGA;El Camino Real 12;02714;Dartmouth;;DPhillips@yahoo.com;1994-06-15;prospect
0023;Mr Emerson Barnes;AND;Carpinteria Avenue 46;43537;Maumee;;EBarnes@yahoo.com;1967-08-30;beneficiary
0024;Mrs Rachel Baker;MLI;Milpas Street 13;71069;Rodessa;;RBaker@msn.com;1985-08-21;prospect
0025;Ms Maisie Turner;NAM;Santa Rosa South 29;27862;Pendleton;206-567-234;MTurner@msn.com;1964-05-02;customer
0026;Mr Kaden Perry;JAM;Padre Boulevard 3;29920;Saint Helena Island;;KPerry@msn.com;1972-08-10;beneficiary
0027;Mr Devan Mitchell;PNG;Redwood Highway 17;54977;Scandinavia;;DMitchell@msn.com;1966-02-15;beneficiary
0028;Mr Adam Hernandez;TKL;Woodson Rd. 49;95010;Capitola;;AHernandez@gmail.com;1998-08-09;prospect
0029;Mrs Mollie Barnes;FRA;E Fowler Avenue 40;23837;Courtland;;MBarnes@msn.com;1954-01-21;beneficiary
003;Mrs Georgina Scott;IRN;El Camino Real 20;13810;Mount Vision;;GScott@gmail.com;1961-12-27;beneficiary
0030;Mr Justice Patterson;UZB;San Simeon 1;63822;Bernie;732-852-494;JPatterson@gmail.com;1975-04-28;prospect
0031;Mr Keagan Nelson;KAZ;Bayshore Freeway 26;89825;Jackpot;311-446-287;KNelson@yahoo.com;1975-02-06;prospect
0032;Ms Isabelle Turner;CYM;San Luis Obispo North 31;54485;Summit Lake;409-148-315;ITurner@yahoo.com;1963-05-18;prospect
0033;Mr Elliott Rivera;DZA;Bowles Avenue 23;54983;Weyauwega;775-176-428;ERivera@gmail.com;1986-07-28;customer
0034;Mrs Ella Evans;AGO;Harbor Dr 3;01068;Oakham;742-829-330;EEvans@gmail.com;2000-08-18;customer
0035;Mrs Amy Kelly;ASM;Bowles Avenue 50;61479;Speer;346-579-779;AKelly@gmail.com;1966-03-04;customer
0036;Mr Kade Robinson;UGA;Fontaine Road 31;14013;Basom;251-577-155;KRobinson@yahoo.com;1991-08-11;customer
0037;Ms Isabel Baker;BMU;Bailard Avenue 20;72427;Egypt;;IBaker@gmail.com;1970-01-24;beneficiary
0038;Mr Edgar Brooks;BOL;Lawrenceville Suwanee 43;55084;Taylors Falls;;EBrooks@gmail.com;1995-12-30;beneficiary
0039;Mrs Lauren Patterson;DJI;Pacific Hwy S 48;26431;Shinnston;;LPatterson@gmail.com;1960-10-09;beneficiary
004;Mr Justice Watson;SLE;Jones Road 33;10994;West Nyack;;JWatson@yahoo.com;2000-02-16;beneficiary
0040;Mr Kane Smith;MLT;Steele Lane 21;50649;Kesley;;KSmith@gmail.com;1956-01-25;customer
0041;Mr Elmer Adams;MRT;Jean de la Fontaine 40;13676;Potsdam;;EAdams@gmail.com;1973-06-06;beneficiary
0042;Ms Kate Washington;KAZ;Hutchinson Rd 42;01262;Stockbridge;530-581-396;KWashington@yahoo.com;1973-12-15;prospect
0043;Mrs Madeleine Phillips;GIB;Carpinteria North 22;19481;Valley Forge;728-105-727;MPhillips@yahoo.com;1970-10-18;customer
0044;Mrs Danielle Reed;PAK;Burnett Road 38;16641;Gallitzin;906-715-080;DReed@msn.com;1993-06-13;customer
0045;Mrs Amber Turner;CMR;North Ventu Park Road 48;47003;West College Corner;;ATurner@msn.com;1990-12-14;prospect
0046;Mr Jose Lewis;MLI;E Fowler Avenue 41;25976;Meadow Bridge;;JLewis@gmail.com;1965-09-03;beneficiary
0047;Ms Shannon Parker;FJI;North Erringer Road 31;18332;Henryville;119-806-249;SParker@gmail.com;1968-02-07;customer
0048;Mr Anton Bennett;AIA;W. Russell St. 24;28509;Alliance;450-042-766;ABennett@gmail.com;1966-07-29;prospect
0049;Mr Donald Collins;SYC;Santa Monica Road 25;14133;Sandusky;;DCollins@msn.com;1989-06-30;prospect
005;Mrs Ellie Rodriguez;UKR;Santa Rosa South 45;21152;Sparks Glencoe;;ERodriguez@yahoo.com;1962-11-09;beneficiary
0050;Mr Emilio Johnson;MMR;South Roosevelt Drive 35;75848;Kirvin;;EJohnson@msn.com;1988-10-08;beneficiary
0051;Mr Axel Campbell;MNP;Santa Rosa North 16;24801;Welch;;ACampbell@yahoo.com;1966-01-01;beneficiary
0052;Mr Justyn Rodriguez;GTM;South Roosevelt Drive 48;57049;North Sioux City;601-181-891;JRodriguez@yahoo.com;1988-11-26;customer
0053;Mr Julio Allen;SLV;Steele Lane 21;43938;Mingo Junction;;JAllen@yahoo.com;1977-09-10;beneficiary
0054;Mrs Eve Baker;MTQ;S Rustle St 5;04287;Bowdoin;678-908-947;EBaker@yahoo.com;1988-06-03;customer
0055;Mrs Madison Thompson;COM;Cabrillo Highway 1;83848;Nordman;;MThompson@yahoo.com;1993-12-23;customer
0056;Mr Austen Perry;MOZ;Bowles Avenue 24;87053;San Ysidro;314-122-864;APerry@gmail.com;1976-03-19;customer
0057;Mrs Grace Moore;SLB;Padre Boulevard 31;47236;Grammer;;GMoore@msn.com;1978-10-08;beneficiary
0058;Mr Kadin Bell;BOL;Jean de la Fontaine 19;60016;Des Plaines;336-028-326;KBell@gmail.com;1968-06-27;prospect
0059;Mr Jorge Thompson;ABW;Via Real 13;15662;Luxor;620-668-04;JThompson@gmail.com;1953-07-07;prospect
006;Ms Lily Morris;ESH;Redwood Highway 26;17003;Annville;;LMorris@msn.com;1966-12-26;beneficiary
0060;Ms Lara Clark;ARM;Calle Real 1;56341;Holmes City;;LClark@msn.com;1959-10-30;beneficiary
0061;Mrs Jasmine Hayes;ATG;Greenwood Road 38;56759;Strathcona;;JHayes@yahoo.com;1984-11-01;prospect
0062;Mr Dominik Stewart;VEN;Cleveland Ave. 18;20747;District Heights;327-128-313;DStewart@yahoo.com;1978-01-24;prospect
0063;Mr Alessandro Taylor;NER;Cerrillos Road 31;41203;Beauty;383-854-771;ATaylor@gmail.com;1961-02-18;customer
0064;Mr Elliot Clark;SGP;Grandview Drive 17;28019;Caroleen;;EClark@yahoo.com;1989-06-05;prospect
0065;Ms Hannah Simmons;SPM;N Kentwood 37;77855;Flynn;088-251-180;HSimmons@msn.com;1991-11-12;customer
0066;Mr Devon Edwards;IRQ;Burnett Road 18;16214;Clarion;816-146-023;DEdwards@gmail.com;1996-06-20;customer
0067;Mrs Eloise Diaz;CUB;Bailard Avenue 22;12976;Rainbow Lake;245-930-931;EDiaz@gmail.com;1972-06-01;prospect
0068;Mr Drake Griffin;MHL;San Marcos 33;12151;Round Lake;643-546-084;DGriffin@gmail.com;1963-01-07;prospect
0069;Mrs Bethany Smith;SLE;Westside Freeway 36;90266;Manhattan Beach;;BSmith@yahoo.com;1953-03-12;beneficiary
007;Mr Ahmed Long;VCT;San Luis Obispo North 36;04278;Rumford Center;024-507-839;ALong@yahoo.com;1958-08-27;prospect
0070;Ms Isabelle Henderson;ABW;South Roosevelt Drive 16;50523;Callender;820-887-197;IHenderson@yahoo.com;1972-09-04;prospect
0071;Mr Asher Jackson;TGO;Jean de la Fontaine 20;12427;Elka Park;;AJackson@gmail.com;1972-10-11;beneficiary
0072;Mrs Victoria Ross;VNM;San Ysidro Blvd 39;76661;Marlin;373-278-330;VRoss@yahoo.com;1957-05-19;customer
0073;Ms Elizabeth Hill;BVT;Milpas Street 7;08005;Barnegat;205-329-830;EHill@msn.com;1953-06-04;prospect
0074;Mrs Megan Evans;DMA;Grandview Drive 40;13670;Oswegatchie;170-717-927;MEvans@yahoo.com;1968-12-17;prospect
0075;Mr Joe Miller;KEN;Santa Ana Freeway 45;76666;Mertens;;JMiller@yahoo.com;1964-12-13;beneficiary
0076;Mr Diego Hayes;ZAF;San Luis Obispo North 31;02059;North Marshfield;;DHayes@yahoo.com;1999-01-30;prospect
0077;Ms Jade Edwards;LUX;Katella Avenue 32;79046;Higgins;;JEdwards@msn.com;1998-09-02;beneficiary
0078;Mrs Rebecca White;IRQ;East Calle Primera 26;95229;Douglas Flat;;RWhite@yahoo.com;1993-02-08;beneficiary
0079;Mrs Isabel Henderson;MDA;Santa Rosa South 12;24230;Coeburn;;IHenderson@gmail.com;1998-11-19;prospect
008;Mr Jayce Butler;GEO;Redwood Highway 20;58311;Alsen;;JButler@gmail.com;1976-01-21;beneficiary
0080;Mr Deon Diaz;KIR;East Fry Blvd. 42;32084;Saint Augustine;946-282-685;DDiaz@msn.com;1961-12-14;prospect
0081;Mr Andrew Diaz;TUR;Carpinteria Avenue 10;83530;Grangeville;;ADiaz@msn.com;1986-06-14;prospect
0082;Mr Elian Campbell;LUX;Westside Freeway 11;20746;Suitland;758-094-785;ECampbell@gmail.com;1968-12-21;prospect
0083;Ms Abigail Garcia;SOM;Lindbergh Blvd 18;17942;Landingville;;AGarcia@msn.com;1977-10-22;beneficiary
0084;Ms Nicole Reed;SVK;Bailard Avenue 49;17094;Thompsontown;638-865-108;NReed@msn.com;1994-07-27;customer
0085;Mrs Rosie Patterson;TON;Santa Rosa South 2;60110;Carpentersville;;RPatterson@msn.com;1994-11-14;beneficiary
0086;Mrs Millie Smith;MUS;South Highway 48;45053;Okeana;;MSmith@yahoo.com;1957-10-19;beneficiary
0087;Mr Donovan Washington;TKL;Harry S Truman Blvd 25;78886;Yancey;385-866-890;DWashington@msn.com;1965-08-30;prospect
0088;Mr Eli Jenkins;EST;Richmond Hill 10;29128;Rembert;616-953-498;EJenkins@gmail.com;1972-04-29;prospect
0089;Ms Katie Evans;GRC;Castillo Drive 22;65624;Cape Fair;;KEvans@msn.com;1990-09-22;beneficiary
009;Mrs Katherine Collins;PRI;Steele Lane 46;74425;Canadian;;KCollins@gmail.com;1962-01-19;beneficiary
0090;Mr Elvis Hayes;TZA;Carpinteria South 2;43771;Philo;;EHayes@yahoo.com;1993-01-04;prospect
0091;Mrs Abbie Scott;IDN;Santa Rosa South 22;72530;Drasco;394-409-825;AScott@yahoo.com;1998-09-27;customer
0092;Mr Dexter Allen;ESH;Lindbergh Blvd 20;14846;Hunt;915-499-713;DAllen@gmail.com;1973-03-27;prospect
0093;Mr Albert Reed;BIH;Carpinteria South 2;30427;Glennville;;AReed@msn.com;1962-10-02;beneficiary
0094;Mr Anderson Turner;GRD;Newbury Road 24;70747;Innis;745-024-807;ATurner@msn.com;1976-06-05;customer
0095;Mr Jonas Thomas;IRQ;E Fowler Avenue 30;54859;Minong;03-09-633;JThomas@yahoo.com;1970-06-04;prospect
0096;Mr Demetrius Carter;ESH;Fontaine Road 46;15126;Imperial;;DCarter@gmail.com;1990-11-19;customer
0097;Mrs Megan Simmons;VGB;San Ysidro Blvd 19;57012;Canistota;163-915-509;MSimmons@msn.com;1979-12-09;customer
0098;Mrs Alisha Anderson;KHM;Erringer Road 21;54812;Barron;283-073-889;AAnderson@yahoo.com;1958-10-16;customer
0099;Mrs Rosie Rivera;FSM;Harry S Truman Blvd 44;02186;Milton;839-163-550;RRivera@yahoo.com;1955-07-17;prospect
0100;Mr Jonah Baker;TLS;Fairview Avenue 15;36509;Bayou La Batre;;JBaker@msn.com;1987-12-04;beneficiary
01000;Mr Aldo Campbell;FRA;Camelback Rd 48;25126;London;;ACampbell@msn.com;2000-03-25;beneficiary
0101;Mr Ayden Griffin;FRA;Richmond Hill 27;78586;San Benito;;AGriffin@gmail.com;1999-06-20;prospect
0102;Mr Devonte Brown;VCT;Carpinteria Avenue 36;52627;Fort Madison;223-152-254;DBrown@msn.com;1990-02-19;customer
0103;Mr Aryan Sanders;BLR;Santa Ana Freeway 17;62897;Whittington;470-058-703;ASanders@msn.com;1961-02-05;customer
0104;Mrs Laura Edwards;NGA;Camelback Rd 32;78067;San Ygnacio;;LEdwards@gmail.com;1977-09-15;beneficiary
0105;Mr Agustin Hernandez;FSM;N Kentwood 44;49625;Copemish;;AHernandez@msn.com;1990-07-30;prospect
0106;Mr Jordan Patterson;SDN;East Main Street 1;13733;Bainbridge;532-947-954;JPatterson@yahoo.com;1956-05-29;customer
0107;Mr Amari Robinson;BDI;Greenwood Road 28;73739;Goltry;;ARobinson@msn.com;1993-02-06;prospect
0108;Ms Lydia Martin;AGO;Fontaine Road 42;51460;Ricketts;;LMartin@gmail.com;1956-06-07;beneficiary
0109;Ms Megan Young;SWZ;North Broadway Street 47;56350;McGrath;014-535-778;MYoung@gmail.com;1981-12-20;prospect
0110;Mr Efren Kelly;MAC;Bowles Avenue 8;54486;Tigerton;;EKelly@yahoo.com;1994-04-19;beneficiary
0111;Mr Aryan Hill;CHL;Fontaine Road 3;21740;Hagerstown;;AHill@msn.com;1962-09-08;beneficiary
0112;Mr Jaylen Brooks;CIV;Lindbergh Blvd 25;25833;Dothan;;JBrooks@yahoo.com;1957-08-14;customer
0113;Mrs Katherine Evans;OMN;Santa Rosa South 23;10541;Mahopac;559-661-744;KEvans@msn.com;1953-12-30;prospect
0114;Mrs Maisie Edwards;MRT;Cerrillos Road 33;27949;Kitty Hawk;776-289-982;MEdwards@msn.com;1957-04-16;customer
0115;Mr Easton Brown;POL;San Ysidro Blvd 43;65580;Vichy;818-057-570;EBrown@gmail.com;1967-11-28;prospect
0116;Ms Kate Johnson;MLT;Santa Rosa South 47;03291;West Nottingham;597-574-642;KJohnson@msn.com;1960-03-14;prospect
0117;Mrs Ella Griffin;EST;Santa Monica Road 10;67454;Kanopolis;090-987-082;EGriffin@gmail.com;1959-11-24;prospect
0118;Mr Kale Parker;PAN;Tully Road East 22;98072;Woodinville;327-750-783;KParker@msn.com;1964-03-04;customer
0119;Mr Joe Nelson;BVT;Santa Monica Road 9;30473;Uvalda;562-374-706;JNelson@msn.com;1970-07-27;customer
0120;Mr Dwight Mitchell;BRB;East Calle Primera 16;40874;Warbranch;;DMitchell@msn.com;1982-01-23;prospect
0121;Mrs Melissa Butler;LUX;Tanger Blvd 7;78146;Pettus;;MButler@gmail.com;1960-01-26;beneficiary
0122;Mr Easton Morris;FSM;Padre Boulevard 40;68431;Rulo;294-659-448;EMorris@gmail.com;1960-05-05;customer
0123;Mrs Maisie Hill;BWA;Bayshore Freeway 40;17239;Neelyton;;MHill@msn.com;2000-01-20;beneficiary
0124;Mr Justus Bell;SYC;Carpinteria South 31;18237;Mcadoo;996-627-855;JBell@yahoo.com;1964-03-12;prospect
0125;Mr Eddy Thompson;ISL;San Diego Freeway 43;16316;Conneaut Lake;543-726-878;EThompson@gmail.com;1971-07-12;customer
0126;Ms Megan Barnes;ESP;Via Real 17;18627;Lehman;673-107-772;MBarnes@yahoo.com;1984-11-11;customer
0127;Mrs Hollie Miller;SCG;Steele Lane 1;54888;Trego;;HMiller@gmail.com;1987-11-19;prospect
0128;Mr Arnold King;TZA;North Erringer Road 18;81029;Campo;983-795-418;AKing@msn.com;1974-01-15;prospect
0129;Mrs Victoria Sanders;TUN;Castillo Drive 48;74434;Fort Gibson;;VSanders@yahoo.com;1995-05-20;beneficiary
0130;Ms Francesca Rivera;DEU;South Roosevelt Drive 44;83520;Ahsahka;095-895-885;FRivera@gmail.com;1968-05-07;prospect
0131;Mr Alexandro Powell;IRN;Bailard Avenue 19;27954;Manteo;687-985-163;APowell@gmail.com;1968-03-24;customer
0132;Mrs Niamh Bailey;NER;Timberlane Drive 14;38559;Doyle;;NBailey@gmail.com;1988-05-05;beneficiary
0133;Ms Freya Cooper;AFG;French Camp Turnpike Road 22;44280;Valley City;908-988-193;FCooper@gmail.com;1952-12-17;customer
0134;Mrs Victoria Smith;MHL;Fontaine Road 14;28516;Beaufort;339-214-632;VSmith@yahoo.com;1981-12-02;customer
0135;Ms Abigail Russell;GHA;French Camp Turnpike Road 43;86338;Skull Valley;;ARussell@gmail.com;1987-02-01;beneficiary
0136;Mr Draven Bryant;TUV;Tully Road East 3;46590;Winona Lake;;DBryant@gmail.com;1953-08-12;customer
0137;Mr Armani Taylor;ZWE;Padre Boulevard 7;50458;Nora Springs;582-413-081;ATaylor@gmail.com;1979-08-10;prospect
0138;Mr Elijah Flores;BGR;Greenwood Road 22;94022;Los Altos;050-701-122;EFlores@gmail.com;1970-01-03;prospect
0139;Mrs Isabella Moore;CCK;E Fowler Avenue 36;37391;Turtletown;919-709-990;IMoore@yahoo.com;1960-02-26;prospect
0140;Mr Devante Diaz;CPV;Cabrillo Highway 34;07933;Gillette;919-304-780;DDiaz@yahoo.com;2000-05-27;customer
0141;Ms Molly Adams;UZB;East Calle Primera 23;15454;Leckrone;421-984-605;MAdams@gmail.com;1961-05-26;prospect
0142;Mr Jovani Cox;PNG;Santa Ana Freeway 13;56444;Deerwood;881-696-474;JCox@gmail.com;1959-05-22;customer
0143;Ms Rachel Martinez;ARG;Harry S Truman Blvd 27;50236;Roland;;RMartinez@msn.com;1988-09-03;beneficiary
0144;Mr Kale Griffin;UGA;Westside Freeway 3;10927;Haverstraw;868-03-287;KGriffin@gmail.com;1999-12-28;customer
0145;Mr Amarion Young;LAO;Corona Del Mar 48;03865;Plaistow;569-527-107;AYoung@gmail.com;1963-01-21;prospect
0146;Mr Alden Perez;MKD;San Simeon 34;56541;Flom;327-968-07;APerez@msn.com;1968-08-17;prospect
0147;Ms Rachel Collins;MRT;Erringer Road 35;80727;Eckley;;RCollins@gmail.com;1983-05-04;beneficiary
0148;Mr Joseph James;VGB;Cleveland Ave. 34;64725;Archie;;JJames@msn.com;1993-04-06;customer
0149;Mrs Abbie Baker;TKM;Burnett Road 23;65666;Hardenville;;ABaker@msn.com;1962-03-14;beneficiary
0150;Mr Johan Barnes;NER;Carpinteria Avenue 25;19354;Lyndell;508-965-396;JBarnes@yahoo.com;1969-10-05;customer
0151;Mrs Danielle Nelson;NLD;Grandview Drive 44;24856;Leckie;612-980-521;DNelson@msn.com;1981-07-23;customer
0152;Mrs Rosie Martin;FSM;N Kentwood 40;27524;Four Oaks;;RMartin@msn.com;2000-10-11;beneficiary
0153;Mr Dominic Thomas;MOZ;Katella Avenue 7;17979;Summit Station;186-290-986;DThomas@msn.com;1972-12-08;prospect
0154;Mr Johnathon Wright;CYM;South Highway 8;03870;Rye;;JWright@yahoo.com;1973-03-25;beneficiary
0155;Mrs Madeleine Johnson;BVT;Hutchinson Rd 48;62859;McLeansboro;;MJohnson@gmail.com;1973-02-25;beneficiary
0156;Mrs Morgan Hill;ATF;S Rustle St 9;62846;Ina;973-360-836;MHill@yahoo.com;1956-07-13;prospect
0157;Ms Paige Kelly;CUB;East 1st Street 46;28538;Hookerton;827-895-978;PKelly@gmail.com;1954-10-19;prospect
0158;Mr Alijah Taylor;TKM;Santa Rosa South 29;07016;Cranford;316-936-520;ATaylor@yahoo.com;1992-03-26;customer
0159;Ms Megan Coleman;VGB;French Camp Turnpike Road 45;16644;Glasgow;982-545-079;MColeman@gmail.com;1958-11-02;prospect
0160;Mr Josef Rivera;BRN;Fontaine Road 25;44652;Middlebranch;;JRivera@yahoo.com;1975-08-29;beneficiary
0161;Mr Jesus Kelly;MKD;East Calle Primera 18;64848;La Russell;610-629-720;JKelly@yahoo.com;1973-03-22;prospect
0162;Mr Diego Edwards;VUT;Westside Freeway 3;15665;Manor;;DEdwards@gmail.com;1993-06-26;beneficiary
0163;Mr Justice Perry;SLV;Redwood Highway 26;76445;Desdemona;955-209-682;JPerry@yahoo.com;1960-03-16;customer
0164;Mr Dion Bennett;RWA;Lawrenceville Suwanee 8;24981;Talcott;812-798-491;DBennett@gmail.com;1967-11-17;customer
0165;Ms Megan Kelly;NLD;Harbor Dr 30;88040;Hachita;;MKelly@yahoo.com;1989-12-24;prospect
0166;Mr Dennis Gonzalez;CRI;W. Russell St. 26;66859;Lost Springs;;DGonzalez@gmail.com;1985-06-18;prospect
0167;Mrs Eloise Edwards;MMR;Newbury Road 44;84622;Centerfield;;EEdwards@msn.com;1994-06-29;beneficiary
0168;Mr Jefferson Thompson;URY;East 1st Street 16;19543;Morgantown;257-020-723;JThompson@yahoo.com;1979-05-10;prospect
0169;Mr Abdiel Allen;PSE;Bailard Avenue 36;74741;Hendrix;;AAllen@msn.com;1989-07-15;beneficiary
0170;Ms Alicia Hall;FRO;S Rustle St 40;87579;Vadito;;AHall@gmail.com;1972-06-04;beneficiary
0171;Ms Mollie Garcia;KAZ;North Broadway Street 34;78582;Rio Grande City;350-964-302;MGarcia@yahoo.com;1980-08-04;customer
0172;Ms Kayleigh Cooper;GRD;Cerrillos Road 23;25022;Blair;;KCooper@gmail.com;1990-05-04;prospect
0173;Mr Alfonso Griffin;BRB;N Harrison St 26;72027;Center Ridge;086-559-899;AGriffin@msn.com;1979-09-13;prospect
0174;Mr Alonzo Jones;MCO;Lindbergh Blvd 19;23901;Farmville;067-773-426;AJones@yahoo.com;1956-08-28;prospect
0175;Ms Jodie Barnes;JAM;N Kentwood 38;98359;Olalla;451-585-626;JBarnes@gmail.com;1974-06-13;customer
0176;Ms Libby Gray;ARG;San Marcos 2;57046;Mission Hill;167-234-822;LGray@yahoo.com;1980-05-04;customer
0177;Ms Tia Green;NPL;San Luis Obispo North 28;44117;Euclid;503-270-572;TGreen@yahoo.com;1959-12-26;prospect
0178;Mr Abdullah Barnes;MYS;Hutchinson Rd 29;70732;Fordoche;;ABarnes@gmail.com;1979-06-17;beneficiary
0179;Mr Alexandro Gonzalez;BHS;East Calle Primera 22;10587;Shenorock;02-484-032;AGonzalez@gmail.com;1974-06-17;customer
0180;Ms Niamh Robinson;BEN;San Ysidro Blvd 24;14809;Avoca;;NRobinson@yahoo.com;1979-12-10;beneficiary
0181;Mr Jesse Hall;SYR;Greenwood Road 41;12439;Hensonville;;JHall@msn.com;1975-02-19;beneficiary
0182;Ms Sophie Mitchell;GUF;Erringer Road 47;59710;Alder;188-799-209;SMitchell@msn.com;1984-02-21;customer
0183;Mrs Holly Young;ARE;Bayshore Freeway 22;65080;Tebbetts;;HYoung@msn.com;1983-10-22;prospect
0184;Mr Emmanuel Lee;GHA;Lindbergh Blvd 18;87548;Medanales;140-455-548;ELee@yahoo.com;1974-07-20;customer
0185;Mr Andre Brown;FRA;Bowles Avenue 36;98643;Rosburg;506-301-611;ABrown@msn.com;1976-12-25;customer
0186;Ms Elizabeth Ramirez;BRB;Jones Road 2;30074;Redan;;ERamirez@msn.com;1982-09-14;beneficiary
0187;Mrs Isabelle Robinson;PNG;San Simeon 24;18437;Lake Como;257-520-924;IRobinson@yahoo.com;1958-04-19;prospect
0188;Mr Abraham Simmons;KGZ;Burnett Road 41;84520;East Carbon;571-744-039;ASimmons@msn.com;1973-12-20;customer
0189;Ms Rebecca Powell;LBY;W. Russell St. 50;71281;Swartz;954-840-558;RPowell@msn.com;1975-01-13;prospect
0190;Mr Alejandro Ward;GRL;North Atherton Street 33;41377;Talbert;131-902-369;AWard@gmail.com;1972-07-11;customer
0191;Ms Bethany Powell;BRN;Santa Rosa South 40;0782;Comerio;206-098-691;BPowell@msn.com;1964-10-08;customer
0192;Mr Dominique Stewart;FRO;Apalachee Parkway 47;57580;Winner;;DStewart@yahoo.com;1961-01-07;beneficiary
0193;Mr Asher Harris;KOR;N Harrison St 16;54810;Balsam Lake;;AHarris@gmail.com;1990-07-31;beneficiary
0194;Mr Ariel Thompson;ABW;North Preisker Lane 33;12962;Morrisonville;;AThompson@gmail.com;1963-02-10;beneficiary
0195;Mr Jesus Jenkins;GRL;North Ventu Park Road 30;60452;Oak Forest;256-779-050;JJenkins@gmail.com;1972-03-12;customer
0196;Ms Zara Lopez;JPN;North Atherton Street 36;81431;Redvale;;ZLopez@msn.com;1971-07-16;beneficiary
0197;Ms Chloe Martinez;MOZ;San Ysidro Blvd 48;26264;Durbin;245-715-878;CMartinez@msn.com;1955-10-12;prospect
0198;Mrs Rachel Hall;GAB;Bowles Avenue 40;75750;Arp;205-669-377;RHall@msn.com;1953-12-13;customer
0199;Ms Chloe Hernandez;MTQ;Bowles Avenue 13;17310;Cashtown;;CHernandez@yahoo.com;1987-05-11;beneficiary
0200;Ms Kate Reed;GIN;Santa Ana Freeway 17;55719;Chisholm;715-355-782;KReed@msn.com;1956-08-28;customer
0201;Mr Alexander Ross;LUX;El Camino Real 42;95418;Calpella;;ARoss@gmail.com;1955-03-17;beneficiary
0202;Mr Denzel Phillips;SCG;Harry S Truman Blvd 19;01749;Hudson;;DPhillips@gmail.com;1979-05-02;beneficiary
0203;Mr Angelo Murphy;KHM;Padre Boulevard 47;41031;Cynthiana;602-564-396;AMurphy@yahoo.com;1958-02-27;customer
0204;Mr Desmond Hayes;SOM;Padre Boulevard 20;59016;Busby;676-596-999;DHayes@gmail.com;1998-10-26;customer
0205;Mr Alexander Coleman;BGR;South Highway 50;58761;Mohall;272-783-408;AColeman@msn.com;1953-12-15;prospect
0206;Mrs Abigail Bell;TGO;E Fowler Avenue 27;47591;Vincennes;395-948-256;ABell@msn.com;1984-09-24;customer
0207;Mrs Abigail Rodriguez;ANT;Timberlane Drive 44;97132;Newberg;783-119-401;ARodriguez@msn.com;1972-03-25;customer
0208;Ms Abigail Moore;JOR;N Harrison St 32;30823;Stapleton;;AMoore@msn.com;1958-12-06;beneficiary
0209;Mr Alan Phillips;SYR;Fontaine Road 42;33537;Lacoochee;;APhillips@msn.com;1966-04-10;beneficiary
0210;Ms Danielle Ross;TGO;San Diego Freeway 2;56226;Clontarf;;DRoss@msn.com;1963-08-25;beneficiary
0211;Ms Rosie Thomas;NLD;Santa Rosa South 25;97350;Idanha;419-592-766;RThomas@yahoo.com;1960-11-10;prospect
0212;Mr Devante Ramirez;TGO;W. Russell St. 14;29081;Ehrhardt;;DRamirez@gmail.com;1983-07-01;beneficiary
0213;Mrs Sophia Garcia;AIA;Erringer Road 28;17368;Wrightsville;;SGarcia@msn.com;1987-04-21;prospect
0214;Mr Jordon Foster;LVA;S Rustle St 37;83842;Medimont;;JFoster@yahoo.com;1953-03-01;beneficiary
0215;Mrs Anna Williams;MYS;North Erringer Road 26;18072;Pen Argyl;;AWilliams@msn.com;1993-12-06;prospect
0216;Mrs Alexandra Collins;SWZ;Burnett Road 21;97054;Deer Island;508-130-534;ACollins@gmail.com;1966-07-01;customer
0217;Mrs Leah Torres;KOR;Lindbergh Blvd 14;38683;Walnut;;LTorres@gmail.com;1974-08-07;beneficiary
0218;Mr Eddie Wright;TUN;Santa Ana Freeway 13;18421;Forest City;;EWright@msn.com;1989-10-13;beneficiary
0219;Mrs Kate Price;BGR;North Atherton Street 24;45351;Osgood;862-241-971;KPrice@gmail.com;1962-05-12;customer
0220;Ms Lydia Alexander;NIU;North Broadway Street 28;72416;Bono;;LAlexander@yahoo.com;1985-11-10;beneficiary
0221;Mr Amari Carter;ANT;Burnett Road 39;40830;Gulston;;ACarter@yahoo.com;2000-03-05;beneficiary
0222;Mr Johan Phillips;VAT;Redwood Highway 48;77449;Katy;;JPhillips@yahoo.com;1997-12-07;beneficiary
0223;Mr Derek Green;GIN;Bowles Avenue 48;79752;McCamey;;DGreen@msn.com;1960-01-01;beneficiary
0224;Mrs Erin Bell;ATF;Lake Tahoe Blvd. 21;12995;Whippleville;363-525-018;EBell@gmail.com;1964-08-29;prospect
0225;Mr Jessie Hayes;LCA;N Kentwood 36;34268;Nocatee;;JHayes@gmail.com;2000-07-26;beneficiary
0226;Mr Derick Peterson;YEM;Jean de la Fontaine 27;50455;McIntire;821-583-255;DPeterson@gmail.com;1981-06-29;prospect
0227;Mr Derick Bailey;BHS;Burnett Road 30;99155;Nespelem;850-618-573;DBailey@gmail.com;1995-09-10;customer
0228;Mr Jude Walker;MDV;Moreno Drive 5;45869;New Bremen;928-909-559;JWalker@msn.com;1998-06-11;customer
0229;Mr Dwayne Sanders;JOR;Castillo Drive 42;78562;La Villa;;DSanders@msn.com;1962-02-18;beneficiary
0230;Ms Imogen Perry;ASM;Bayshore Freeway 34;57384;Wolsey;454-810-964;IPerry@msn.com;1958-03-02;prospect
0231;Mrs Victoria Hayes;PSE;Camelback Rd 11;15126;Imperial;;VHayes@yahoo.com;1996-05-24;prospect
0232;Ms Francesca Rivera;LSO;Katella Avenue 19;87579;Vadito;741-350-208;FRivera@yahoo.com;1975-07-18;customer
0233;Mr Eli Sanders;CCK;East Calle Primera 34;99689;Yakutat;293-937-373;ESanders@yahoo.com;1955-11-01;customer
0234;Ms Chloe Baker;SYC;Greenwood Road 4;99631;Moose Pass;;CBaker@yahoo.com;1957-01-10;beneficiary
0235;Ms Evie Davis;IRN;East Calle Primera 31;17961;Orwigsburg;;EDavis@yahoo.com;1990-04-15;prospect
0236;Mr Jayden Adams;HKG;Bailard Avenue 45;12808;Adirondack;;JAdams@gmail.com;1969-11-21;beneficiary
0237;Mr Donovan Morris;MYT;Cleveland Ave. 34;22937;Esmont;314-622-750;DMorris@gmail.com;1964-06-13;customer
0238;Mr Edgardo Griffin;MHL;Newbury Road 48;18092;Zionsville;;EGriffin@gmail.com;1988-06-04;prospect
0239;Ms Alisha Foster;MNG;South Highway 4;85643;Willcox;901-933-422;AFoster@yahoo.com;1965-10-26;customer
0240;Ms Phoebe Hernandez;UMI;N Kentwood 42;55797;Wrenshall;;PHernandez@gmail.com;1985-02-25;beneficiary
0241;Mr Emmett Clark;MDG;E Fowler Avenue 25;94101;San Francisco;996-465-998;EClark@gmail.com;1973-12-15;customer
0242;Mrs Isabelle Ramirez;COG;Greenwood Road 30;08019;Chatsworth;790-948-085;IRamirez@yahoo.com;1969-06-08;customer
0243;Mrs Jodie Thompson;TKM;S Rustle St 42;54240;Tisch Mills;;JThompson@gmail.com;1995-08-28;beneficiary
0244;Mr Demarcus Wilson;GLP;Via Real 40;23395;Horntown;111-279-028;DWilson@msn.com;1992-03-14;customer
0245;Ms Millie Walker;UKR;N Harrison St 1;33780;Pinellas Park;;MWalker@msn.com;1997-05-08;beneficiary
0246;Ms Natasha Cook;AZE;Santa Ana Freeway 35;29469;Pinopolis;;NCook@yahoo.com;1967-06-04;beneficiary
0247;Mr Denzel Alexander;TTO;Bailard Avenue 46;16228;Ford Cliff;;DAlexander@msn.com;1982-12-08;beneficiary
0248;Mr Eliezer Moore;DEU;Jean de la Fontaine 22;04625;Cranberry Isles;666-760-814;EMoore@gmail.com;1986-08-05;customer
0249;Mr Arturo Scott;BLZ;Timberlane Drive 12;51341;Gillett Grove;259-159-372;AScott@yahoo.com;1976-02-29;prospect
0250;Mrs Tegan Rivera;MOZ;East 1st Street 6;86320;Ash Fork;;TRivera@msn.com;1983-09-09;prospect
0251;Mr Jaylen Long;NCL;Via Real 45;32061;Lulu;;JLong@msn.com;2000-10-31;prospect
0252;Mr Ashton Jones;PLW;North Ventu Park Road 29;25882;Mullens;611-908-348;AJones@yahoo.com;1962-03-19;prospect
0253;Mrs Isobel Cox;WLF;Steele Lane 6;18820;Gibson;;ICox@gmail.com;1986-12-15;beneficiary
0254;Mr Josef Sanchez;VUT;South Highway 29;15562;Springs;;JSanchez@gmail.com;1994-07-03;beneficiary
0255;Mrs Alexandra Scott;PHL;Carpinteria South 29;01262;Stockbridge;182-242-022;AScott@gmail.com;1958-02-19;prospect
0256;Ms Maisie Jackson;LBY;Lake Tahoe Blvd. 41;12845;Lake George;106-804-201;MJackson@msn.com;1975-06-20;prospect
0257;Ms Georgina Russell;MCO;Cabrillo Highway 38;04627;Deer Isle;427-643-033;GRussell@yahoo.com;1956-07-28;customer
0258;Mr Josh Davis;CIV;Lindbergh Blvd 41;60466;Park Forest;;JDavis@gmail.com;1998-07-11;prospect
0259;Mr Abdiel Bell;AUS;Bayshore Freeway 19;36061;Perote;;ABell@yahoo.com;1984-02-07;prospect
0260;Mrs Ruby Simmons;KAZ;Padre Boulevard 36;02814;Chepachet;;RSimmons@yahoo.com;1996-02-07;prospect
0261;Mr Josiah Howard;TJK;Harbor Dr 41;62273;Pierron;392-019-552;JHoward@yahoo.com;1960-08-06;customer
0262;Mr Jaylen Ward;MEX;Woodson Rd. 24;05664;Northfield Falls;449-704-863;JWard@yahoo.com;1957-11-10;prospect
0263;Mr Jeremy Thompson;FJI;Apalachee Parkway 7;53573;Muscoda;;JThompson@msn.com;1986-02-20;prospect
0264;Ms Bethany Jenkins;VNM;East Main Street 27;06025;East Glastonbury;;BJenkins@gmail.com;1997-04-11;prospect
0265;Mrs Eve Williams;CZE;Bailard Avenue 20;03607;South Acworth;619-468-625;EWilliams@yahoo.com;1992-09-03;customer
0266;Mr Abdullah Ross;IDN;Carpinteria North 20;14733;Falconer;672-601-869;ARoss@msn.com;1969-03-07;customer
0267;Mrs Aimee Evans;HND;Pacific Hwy S 42;32098;Palm Valley;;AEvans@yahoo.com;1984-01-07;beneficiary
0268;Mr Juan Smith;ZMB;Westside Freeway 33;45147;Miamiville;;JSmith@gmail.com;1985-11-22;beneficiary
0269;Mr Jonathan Moore;THA;Fontaine Road 42;22936;Earlysville;626-036-709;JMoore@yahoo.com;1973-07-14;prospect
0270;Ms Madison Smith;VNM;North Preisker Lane 37;05465;Jericho;695-839-513;MSmith@gmail.com;1973-12-09;prospect
0271;Mrs Aimee Stewart;LTU;Jones Road 38;32266;Neptune Beach;890-302-082;AStewart@gmail.com;1981-06-04;prospect
0272;Mr Jordon Richardson;TJK;Lake Tahoe Blvd. 17;85309;Luke AFB;827-751-404;JRichardson@msn.com;1962-11-04;prospect
0273;Mrs Emily Kelly;MAR;San Marcos 4;55384;Spring Park;;EKelly@gmail.com;1973-11-15;beneficiary
0274;Mrs Abby Baker;SPM;North Erringer Road 18;19454;North Wales;657-317-233;ABaker@msn.com;1959-07-04;customer
0275;Mrs Abbie Ramirez;CPV;San Ysidro Blvd 37;60924;Cissna Park;714-972-700;ARamirez@yahoo.com;1958-09-26;prospect
0276;Mrs Yasmin Hernandez;QAT;North Preisker Lane 19;62621;Bluffs;;YHernandez@gmail.com;1983-03-30;beneficiary
0277;Mr Jude Roberts;KIR;E Fowler Avenue 6;44633;Holmesville;839-636-121;JRoberts@gmail.com;1973-01-19;customer
0278;Mr Alessandro Miller;PHL;Santa Rosa South 46;05765;Proctor;994-889-446;AMiller@gmail.com;1964-08-18;customer
0279;Mrs Ruby Bennett;UMI;Timberlane Drive 30;24527;Blairs;;RBennett@gmail.com;1968-11-07;beneficiary
0280;Ms Georgina Lopez;MYS;Calle Real 30;37843;Parrottsville;614-884-560;GLopez@yahoo.com;1964-03-26;prospect
0281;Mrs Maisie Green;GBR;Hutchinson Rd 31;06479;Plantsville;;MGreen@msn.com;1985-06-02;beneficiary
0282;Mr Jovan Moore;ZWE;Greenwood Road 9;42211;Cadiz;;JMoore@yahoo.com;1960-06-16;beneficiary
0283;Mr Dillon Parker;NAM;East Calle Primera 19;77375;Tomball;167-511-494;DParker@msn.com;1972-11-29;prospect
0284;Mr Jean Cooper;ECU;North Ventu Park Road 36;70801;Baton Rouge;;JCooper@gmail.com;1983-05-27;beneficiary
0285;Mr Alonzo Murphy;MYS;Richmond Hill 7;98901;Yakima;333-744-166;AMurphy@yahoo.com;1958-01-27;customer
0286;Mr Elian Coleman;PRT;Harry S Truman Blvd 11;50501;Fort Dodge;149-813-761;EColeman@msn.com;1957-02-25;customer
0287;Mr Joan Thompson;DMA;Carpinteria North 11;18936;Montgomeryville;245-916-845;JThompson@msn.com;1955-02-28;customer
0288;Mr Jesse Anderson;FRA;Harry S Truman Blvd 21;26148;Macfarlan;232-178-278;JAnderson@gmail.com;1958-05-29;prospect
0289;Mrs Kayleigh Price;TJK;El Camino Real 5;23970;South Hill;799-547-038;KPrice@gmail.com;1959-03-19;customer
0290;Mr Diego Lopez;PRT;Greenwood Road 17;78673;Walburg;056-183-141;DLopez@gmail.com;1985-02-24;customer
0291;Mr Edward Murphy;DOM;Cabrillo Highway 23;41832;Letcher;;EMurphy@gmail.com;1997-12-11;beneficiary
0292;Mr Judah Gonzalez;LBY;Grandview Drive 24;13621;Chase Mills;857-689-744;JGonzalez@gmail.com;1982-06-01;customer
0293;Mrs Molly Jenkins;PAK;East Calle Primera 46;13362;Knoxboro;;MJenkins@msn.com;1987-06-27;prospect
0294;Mrs Isabel Moore;BTN;Tanger Blvd 47;25650;Verner;;IMoore@gmail.com;1960-08-28;customer
0295;Mr Deven Henderson;BDI;North Ventu Park Road 35;28556;Merritt;210-559-231;DHenderson@yahoo.com;1965-07-03;prospect
0296;Mr Joe Taylor;NIU;Jean de la Fontaine 5;26075;Windsor Heights;911-142-680;JTaylor@gmail.com;1962-12-12;customer
0297;Mr Judah Bell;CPV;Moreno Drive 26;76064;Maypearl;;JBell@yahoo.com;1997-09-08;beneficiary
0298;Mrs Eloise Rodriguez;SHN;Erringer Road 12;07417;Franklin Lakes;;ERodriguez@gmail.com;1955-10-06;beneficiary
0299;Mrs Hollie Morgan;GLP;Jean de la Fontaine 27;04413;Brookton;277-173-317;HMorgan@yahoo.com;1999-01-06;customer
0300;Ms Jennifer Bennett;UMI;Castillo Drive 43;99558;Anvik;;JBennett@yahoo.com;1956-01-28;customer
0301;Mrs Lauren Peterson;SGP;Carpinteria South 44;17889;Winfield;;LPeterson@msn.com;1960-06-18;beneficiary
0302;Mrs Abby Torres;MHL;Newbury Road 30;14471;Honeoye;346-192-645;ATorres@msn.com;1979-05-22;customer
0303;Mr Josef Edwards;THA;W. Russell St. 5;31773;Ochlocknee;620-111-775;JEdwards@yahoo.com;1974-09-02;prospect
0304;Mr Drake Edwards;IRN;N Kentwood 32;10516;Cold Spring;344-105-738;DEdwards@yahoo.com;1984-06-26;customer
0305;Ms Madeleine Clark;DNK;San Marcos 10;10956;New City;097-843-131;MClark@yahoo.com;1976-03-06;prospect
0306;Mrs Charlie Russell;SLB;Burnett Road 48;04780;Smyrna Mills;155-430-530;CRussell@yahoo.com;1980-10-13;prospect
0307;Mr Alan Jones;JPN;Via Real 17;04039;Gray;056-688-081;AJones@yahoo.com;1955-01-28;prospect
0308;Mrs Grace Hughes;KGZ;Timberlane Drive 44;24178;Villamont;453-584-665;GHughes@gmail.com;1956-04-15;prospect
0309;Mr Derrick Martinez;PRI;San Simeon 9;59910;Big Arm;;DMartinez@msn.com;1957-05-20;beneficiary
0310;Mr Dustin Sanchez;BLR;S Rustle St 15;38645;Lyon;;DSanchez@msn.com;1976-04-13;beneficiary
0311;Mr Devan James;MNG;Fontaine Road 36;90262;Lynwood;072-259-362;DJames@gmail.com;1967-06-23;customer
0312;Mr Elvin Wright;MNP;East 1st Street 35;26619;Exchange;;EWright@msn.com;1986-07-15;customer
0313;Mr Kayden Kelly;GRL;Cleveland Ave. 48;56328;Flensburg;815-454-071;KKelly@yahoo.com;1975-09-08;customer
0314;Ms Laura King;CIV;East 1st Street 2;26817;Bloomery;329-371-122;LKing@msn.com;1957-12-20;customer
0315;Mr Jessie Taylor;FRA;Calle Real 30;17965;Port Carbon;;JTaylor@msn.com;1975-07-24;beneficiary
0316;Mrs Francesca Carter;MDA;W. Russell St. 25;17049;McAlisterville;;FCarter@msn.com;1994-12-02;beneficiary
0317;Mrs Melissa Alexander;COK;Woodson Rd. 27;79036;Fritch;;MAlexander@yahoo.com;1993-07-08;beneficiary
0318;Ms Eleanor Watson;CPV;Richmond Hill 16;58231;Fordville;;EWatson@yahoo.com;1969-08-28;customer
0319;Mr Duncan Brown;AZE;Carpinteria North 33;22211;Ft Myer;385-103-433;DBrown@msn.com;1994-02-18;customer
0320;Mr Jermaine Powell;CZE;San Marcos 1;04459;Mattawamkeag;966-181-419;JPowell@yahoo.com;1975-10-12;customer
0321;Ms Georgina Ross;RWA;Jones Road 21;25537;Lesage;423-969-321;GRoss@gmail.com;1990-07-09;customer
0322;Mr Deshawn Phillips;WLF;N Kentwood 39;64665;Mount Moriah;589-525-542;DPhillips@yahoo.com;1999-04-04;customer
0323;Mrs Lily Evans;IRN;Padre Boulevard 44;21650;Massey;695-912-332;LEvans@yahoo.com;1999-10-02;customer
0324;Mr Ayden Collins;ATA;East 1st Street 47;13638;Felts Mills;;ACollins@msn.com;1998-09-11;prospect
0325;Ms Niamh Alexander;EGY;S Rustle St 21;78583;Rio Hondo;;NAlexander@gmail.com;1960-01-13;beneficiary
0326;Mrs Ruby Watson;CHL;W. Russell St. 23;37401;Chattanooga;;RWatson@yahoo.com;1996-07-12;beneficiary
0327;Ms Jessica Martinez;COM;Castillo Drive 26;79036;Fritch;906-068-398;JMartinez@yahoo.com;1968-05-06;prospect
0328;Ms Harriet Kelly;HTI;Burnett Road 27;31610;Sparks;;HKelly@yahoo.com;1999-01-20;prospect
0329;Mrs Zoe Perry;DNK;Fontaine Road 42;29355;Kinards;685-071-676;ZPerry@gmail.com;1996-07-19;customer
0330;Ms Lauren Perry;LSO;Steele Lane 39;79841;Sierra Blanca;;LPerry@gmail.com;1960-09-25;beneficiary
0331;Mr Emilio Torres;GRD;Calle Real 44;62621;Bluffs;022-147-561;ETorres@gmail.com;1992-04-20;customer
0332;Ms Mollie Lopez;AND;N Kentwood 36;63821;Arbyrd;;MLopez@yahoo.com;1966-11-14;beneficiary
0333;Mr Alfredo Sanchez;SGS;Santa Rosa North 16;38257;South Fulton;141-126-969;ASanchez@gmail.com;1967-04-14;prospect
0334;Ms Hannah Baker;IRQ;Newbury Road 48;21122;Pasadena;647-758-317;HBaker@yahoo.com;1981-02-19;customer
0335;Mr Jeremy Bailey;GRC;Santa Ana Freeway 16;02032;East Walpole;;JBailey@yahoo.com;1960-04-30;beneficiary
0336;Mr Justyn Hughes;IND;Apalachee Parkway 46;16261;Widnoon;942-174-315;JHughes@gmail.com;1966-06-11;prospect
0337;Mr Donald Campbell;BEN;Tanger Blvd 8;50059;Cooper;301-843-543;DCampbell@gmail.com;1955-05-28;customer
0338;Mr Aiden Gonzales;BFA;North Ventu Park Road 39;24415;Brownsburg;021-894-158;AGonzales@gmail.com;1988-03-31;customer
0339;Mrs Poppy Reed;TGO;San Diego Freeway 16;17864;Port Trevorton;;PReed@msn.com;1980-01-05;beneficiary
0340;Ms Isobel Russell;MDA;Katella Avenue 18;87124;Rio Rancho;291-664-088;IRussell@msn.com;1979-07-16;prospect
0341;Mr Jovani Robinson;NPL;North Atherton Street 10;76661;Marlin;776-965-243;JRobinson@yahoo.com;1986-04-27;customer
0342;Mrs Lara Smith;IRQ;Harry S Truman Blvd 2;02166;Auburndale;;LSmith@msn.com;1996-09-21;beneficiary
0343;Mr Drake Rogers;HUN;Tully Road East 20;15750;Josephine;;DRogers@yahoo.com;1958-07-06;beneficiary
0344;Mr Devyn Patterson;SOM;Fairview Avenue 39;98430;Camp Murray;778-763-745;DPatterson@gmail.com;1973-05-07;prospect
0345;Mr Demarcus Peterson;SLE;Santa Rosa South 34;15061;Monaca;;DPeterson@msn.com;1979-12-25;beneficiary
0346;Mr Jermaine Bailey;GUM;North Erringer Road 34;15106;Carnegie;;JBailey@gmail.com;1952-03-17;beneficiary
0347;Mr Julien Thomas;ABW;Cleveland Ave. 35;69355;Melbeta;403-839-022;JThomas@yahoo.com;1967-03-22;prospect
0348;Mr Edgar Patterson;KIR;S Rustle St 47;58204;Grand Forks AFB;;EPatterson@msn.com;1996-08-06;prospect
0349;Mr Jean Sanders;AZE;Cleveland Ave. 19;16821;Allport;226-792-910;JSanders@msn.com;1960-11-30;prospect
0350;Mr Jaylen Adams;TUN;North Ventu Park Road 50;17764;Renovo;655-804-719;JAdams@yahoo.com;1956-02-25;customer
0351;Mr Armando Hernandez;ARE;Tanger Blvd 33;31549;Lumber City;297-421-715;AHernandez@msn.com;1975-08-16;customer
0352;Mr Elliott Jones;CIV;Corona Del Mar 31;45002;Cleves;09-881-482;EJones@yahoo.com;1978-03-30;customer
0353;Ms Mollie Bryant;KAZ;Jean de la Fontaine 42;04840;Camden;;MBryant@gmail.com;1990-07-13;prospect
0354;Mr Josiah Hughes;CYM;South Highway 15;65570;Success;948-147-902;JHughes@msn.com;1973-06-12;customer
0355;Mrs Kayleigh Moore;BTN;Redwood Highway 11;68410;Nebraska City;;KMoore@msn.com;2000-08-16;prospect
0356;Mr August Perez;ZWE;El Camino Real 17;78562;La Villa;;APerez@yahoo.com;1965-01-20;beneficiary
0357;Mr Efren Williams;MSR;South Highway 1;70720;Bueche;;EWilliams@msn.com;1971-07-07;beneficiary
0358;Ms Libby Griffin;FJI;San Luis Obispo North 33;13348;Hartwick;;LGriffin@yahoo.com;1982-07-22;beneficiary
0359;Ms Abby Ross;DEU;North Preisker Lane 32;17362;Spring Grove;;ARoss@gmail.com;1982-03-10;beneficiary
0360;Mr Joseph Jackson;DNK;East Main Street 16;87571;Taos;167-329-948;JJackson@gmail.com;1969-09-12;customer
0361;Ms Chelsea Murphy;JAM;Fontaine Road 19;64021;Corder;324-826-098;CMurphy@msn.com;1994-03-17;customer
0362;Mr Alfonso Torres;HRV;Jones Road 47;65083;Ulman;;ATorres@msn.com;1983-09-26;beneficiary
0363;Mr Elvin Simmons;COG;San Luis Obispo North 22;48475;Ubly;286-102-069;ESimmons@yahoo.com;1977-12-18;customer
0364;Mrs Jessica Griffin;GUM;Via Real 11;07739;Little Silver;;JGriffin@msn.com;1985-09-02;beneficiary
0365;Mr Eddy Flores;SAU;Lindbergh Blvd 4;12697;Moira;626-148-117;EFlores@msn.com;1971-04-22;customer
0366;Mrs Hannah Ross;GBR;Bowles Avenue 26;92283;Winterhaven;;HRoss@msn.com;1993-02-28;beneficiary
0367;Mr Alexzander Patterson;LBY;Grandview Drive 39;03257;New London;338-208-452;APatterson@gmail.com;1992-09-03;customer
0368;Mr Antony Henderson;SHN;North Erringer Road 5;23873;Meredithville;979-798-014;AHenderson@yahoo.com;1965-06-02;prospect
0369;Mrs Harriet Thomas;LIE;South Roosevelt Drive 42;25670;Delbarton;;HThomas@yahoo.com;1988-03-08;prospect
0370;Mr Kayden Price;MAC;Tully Road East 43;23875;Prince George;345-084-246;KPrice@gmail.com;1971-02-09;prospect
0371;Ms Yasmin Hayes;RUS;South Roosevelt Drive 46;29724;Lando;;YHayes@yahoo.com;1982-01-22;prospect
0372;Mr Joshua Jackson;ALB;San Simeon 46;44431;Leetonia;178-705-270;JJackson@msn.com;2000-08-21;customer
0373;Mr Alfred Mitchell;TZA;French Camp Turnpike Road 45;23944;Kenbridge;674-809-475;AMitchell@yahoo.com;1966-08-23;customer
0374;Mrs Katie Adams;HMD;North Erringer Road 12;66528;Quenemo;;KAdams@gmail.com;1993-09-24;prospect
0375;Ms Eve Jones;GMB;Steele Lane 38;56265;Montevideo;;EJones@yahoo.com;1976-01-03;beneficiary
0376;Mr Joel Evans;NLD;North Atherton Street 29;12749;Kauneonga Lake;;JEvans@yahoo.com;1952-10-29;beneficiary
0377;Mr Austen Martin;TKM;Newbury Road 10;60666;Amf Ohare;015-630-591;AMartin@msn.com;1967-05-17;customer
0378;Mr Abdiel Martinez;KGZ;Burnett Road 20;46986;Swayzee;;AMartinez@msn.com;1993-07-14;beneficiary
0379;Mr Adonis Mitchell;PSE;North Erringer Road 46;14735;Fillmore;;AMitchell@msn.com;1980-11-28;beneficiary
0380;Mr Efrain Murphy;COD;N Harrison St 39;50470;Rowan;796-253-864;EMurphy@msn.com;1961-09-20;prospect
0381;Mrs Eleanor Foster;ALB;Carpinteria North 8;17350;New Oxford;;EFoster@yahoo.com;1994-11-14;prospect
0382;Mr Jayden Sanders;UMI;San Diego Freeway 36;83464;Leadore;;JSanders@msn.com;1976-10-05;beneficiary
0383;Mr Emilio Carter;EGY;Grandview Drive 37;01474;West Townsend;494-063-945;ECarter@yahoo.com;1955-08-30;customer
0384;Mr Denzel Nelson;DNK;French Camp Turnpike Road 34;14856;Kanona;;DNelson@yahoo.com;1994-11-20;beneficiary
0385;Ms Madison Taylor;IRN;Pacific Hwy S 49;13465;Solsville;044-793-634;MTaylor@yahoo.com;1972-12-10;customer
0386;Mr Andrew Nelson;HRV;San Luis Obispo North 50;15368;Vestaburg;791-901-979;ANelson@msn.com;1957-01-20;prospect
0387;Mr Duncan Richardson;SWZ;Carpinteria South 20;11975;Wainscott;675-05-481;DRichardson@msn.com;1970-07-07;customer
0388;Mr Asa Foster;SDN;East Main Street 35;13459;Sharon Springs;;AFoster@gmail.com;1987-01-19;beneficiary
0389;Ms Georgina Scott;VUT;North Broadway Street 14;33843;Frostproof;;GScott@msn.com;1968-10-21;beneficiary
0390;Ms Sarah Barnes;NIU;Moreno Drive 34;59001;Absarokee;;SBarnes@msn.com;1999-10-31;prospect
0391;Mrs Isabella Stewart;CYM;N Kentwood 43;06075;Stafford;;IStewart@msn.com;1995-05-31;beneficiary
0392;Ms Isabella Morgan;WSM;East 1st Street 3;96051;Lakehead;;IMorgan@msn.com;1987-12-11;beneficiary
0393;Mrs Aaliyah Gonzalez;BTN;Bailard Avenue 6;95222;Angels Camp;998-620-354;AGonzalez@yahoo.com;1955-04-03;prospect
0394;Mrs Jessica Lopez;LIE;Harry S Truman Blvd 28;41540;Lick Creek;;JLopez@yahoo.com;1957-01-12;beneficiary
0395;Ms Brooke Hall;FRA;San Ysidro Blvd 13;96132;Termo;;BHall@gmail.com;1990-04-18;beneficiary
0396;Ms Amber Coleman;HMD;San Diego Freeway 1;52218;Coggon;;AColeman@yahoo.com;1979-12-27;beneficiary
0397;Mr Jay Richardson;SGS;W. Russell St. 25;66946;Hollenberg;175-865-501;JRichardson@msn.com;1973-02-23;prospect
0398;Mrs Melissa Morris;GNB;Bayshore Freeway 47;79607;Dyess AFB;;MMorris@yahoo.com;1953-09-24;beneficiary
0399;Mr Elvis Turner;BGD;Redwood Highway 18;06373;Oneco;;ETurner@msn.com;1983-11-17;prospect
0400;Ms Jodie Gonzales;BRA;Carpinteria North 20;81656;Woody Creek;;JGonzales@msn.com;1991-10-22;prospect
0401;Mr Dexter Scott;BLZ;Redwood Highway 3;92234;Cathedral City;;DScott@gmail.com;1974-01-15;beneficiary
0402;Mr Abdiel Rodriguez;MUS;Bailard Avenue 5;33352;Pine Island Ridge;240-148-755;ARodriguez@gmail.com;1975-06-03;prospect
0403;Mr Jay Ward;MAR;Tully Road East 13;24640;Red Ash;;JWard@gmail.com;1987-10-10;beneficiary
0404;Mr Johnathan Thomas;DMA;Harry S Truman Blvd 33;49259;Munith;;JThomas@msn.com;1955-11-29;beneficiary
0405;Ms Morgan Adams;JPN;Timberlane Drive 50;11414;Howard Beach;511-032-761;MAdams@msn.com;1976-10-26;customer
0406;Mr Jorden Roberts;BDI;Santa Ana Freeway 13;04287;Bowdoin;707-571-308;JRoberts@yahoo.com;1981-07-25;customer
0407;Mrs Francesca Anderson;FRA;Fontaine Road 13;56535;Erskine;953-894-839;FAnderson@yahoo.com;1999-06-12;customer
0408;Ms Samantha Davis;SEN;North Erringer Road 44;84750;Marysvale;;SDavis@gmail.com;1973-02-24;beneficiary
0409;Mr Dominick Sanchez;VEN;Steele Lane 1;24570;Lowry;770-508-374;DSanchez@msn.com;1978-06-12;prospect
0410;Mr John White;BLZ;N Kentwood 23;68023;Fort Calhoun;740-125-144;JWhite@msn.com;1965-06-01;prospect
0411;Ms Freya James;RUS;Milpas Street 5;24747;Rock;;FJames@yahoo.com;1984-09-28;beneficiary
0412;Mrs Shannon Sanchez;ISL;Tully Road East 29;97045;Oregon City;;SSanchez@gmail.com;1987-05-28;beneficiary
0413;Mr Jaylon Smith;KHM;Cabrillo Highway 39;15340;Hickory;899-794-466;JSmith@msn.com;1959-05-21;prospect
0414;Mr Aryan Barnes;MKD;Cleveland Ave. 5;44211;Brady Lake;838-999-061;ABarnes@gmail.com;1954-04-11;prospect
0415;Mrs Georgina Carter;NFK;East Fry Blvd. 30;84717;Bryce Canyon;;GCarter@gmail.com;1985-05-24;prospect
0416;Ms Jasmine Baker;AUT;Carpinteria Avenue 21;86436;Topock;;JBaker@gmail.com;1986-10-27;prospect
0417;Ms Katherine Parker;GIB;Richmond Hill 11;28766;Penrose;;KParker@yahoo.com;1992-06-13;prospect
0418;Mrs Imogen Reed;BWA;Jones Road 3;03245;Holderness;;IReed@msn.com;1973-01-26;beneficiary
0419;Ms Eloise Gonzalez;TLS;Monroe Street 9;24277;Pennington Gap;738-600-122;EGonzalez@yahoo.com;1978-01-23;prospect
0420;Mr Elisha Mitchell;SLV;North Broadway Street 45;75453;Lone Oak;922-117-625;EMitchell@gmail.com;1954-03-17;prospect
0421;Mr Alfredo Green;PER;Richmond Hill 25;12165;Spencertown;015-831-731;AGreen@msn.com;1963-02-22;prospect
0422;Mr Eddie Moore;GIB;Erringer Road 36;05872;West Charleston;611-084-889;EMoore@gmail.com;1988-08-18;customer
0423;Mrs Chloe Walker;UMI;South Roosevelt Drive 48;99668;Sleetmute;;CWalker@yahoo.com;1988-03-15;prospect
0424;Mr Angel Walker;PSE;North Preisker Lane 27;36022;Deatsville;;AWalker@msn.com;1969-02-09;beneficiary
0425;Mrs Bethany Thompson;TUN;Erringer Road 17;19503;Bally;;BThompson@yahoo.com;1995-07-13;prospect
0426;Mrs Abbie Wright;ALB;Harbor Dr 7;56052;Kilkenny;;AWright@yahoo.com;1987-02-01;prospect
0427;Ms Phoebe Powell;CCK;East Calle Primera 46;17261;South Mountain;800-016-617;PPowell@msn.com;1974-01-31;customer
0428;Mrs Amy Hughes;WSM;North Ventu Park Road 23;59487;Vaughn;383-748-528;AHughes@msn.com;1962-05-03;customer
0429;Mr Aryan Roberts;CHN;North Broadway Street 30;78347;Chapman Ranch;635-070-548;ARoberts@msn.com;1985-12-05;customer
0430;Mrs Mia Jenkins;SDN;Milpas Street 40;68322;Bruning;;MJenkins@gmail.com;1996-11-03;prospect
0431;Mrs Eloise Henderson;TZA;Santa Rosa North 13;61278;Rapids City;860-713-173;EHenderson@gmail.com;1994-10-11;customer
0432;Ms Poppy Butler;MUS;Lawrenceville Suwanee 29;23920;Brodnax;815-615-171;PButler@msn.com;1980-09-27;prospect
0433;Ms Samantha Ross;CAN;Cerrillos Road 36;96710;Hakalau;;SRoss@gmail.com;1982-11-30;prospect
0434;Mrs Summer Martinez;KOR;North Preisker Lane 17;11040;New Hyde Park;;SMartinez@msn.com;1964-03-08;beneficiary
0435;Ms Holly Morgan;MTQ;Corona Del Mar 4;45844;Fort Jennings;;HMorgan@gmail.com;1957-08-24;beneficiary
0436;Mrs Grace Phillips;AUS;Lindbergh Blvd 28;63945;Harviell;459-370-454;GPhillips@msn.com;1973-06-07;customer
0437;Mr Jonathon Roberts;ARG;Harbor Dr 10;28436;Delco;749-436-612;JRoberts@yahoo.com;1952-05-31;prospect
0438;Ms Morgan Parker;MCO;South Highway 15;17255;Shade Gap;734-070-570;MParker@msn.com;1982-09-15;customer
0439;Mrs Jessica Hernandez;CMR;Fairview Avenue 41;04006;Biddeford Pool;;JHernandez@msn.com;1993-02-11;prospect
0440;Ms Mia Brown;GUY;Erringer Road 44;56755;Saint Vincent;390-510-867;MBrown@msn.com;1955-06-26;prospect
0441;Mrs Jodie King;ZAF;Newbury Road 15;22735;Reva;202-522-031;JKing@msn.com;1970-03-18;prospect
0442;Ms Ruby Phillips;EST;Cleveland Ave. 33;26836;Moorefield;069-982-290;RPhillips@gmail.com;1977-07-19;prospect
0443;Mr Ayden Taylor;BLR;Via Real 46;68836;Elm Creek;585-512-119;ATaylor@gmail.com;1966-06-18;prospect
0444;Mr Kane Lewis;LAO;San Marcos 7;72579;Sulphur Rock;269-243-857;KLewis@msn.com;1977-06-05;customer
0445;Mrs Katie Collins;ATF;Fairview Avenue 26;48747;Munger;;KCollins@gmail.com;1958-02-12;beneficiary
0446;Ms Lara Williams;GRL;East Calle Primera 43;70422;Amite;;LWilliams@msn.com;1994-11-12;prospect
0447;Mrs Isabelle Long;TUV;Santa Monica Road 26;62625;Cantrall;880-572-541;ILong@yahoo.com;1969-10-11;customer
0448;Mrs Grace Ward;SWE;San Marcos 46;65065;Osage Beach;;GWard@yahoo.com;1956-11-05;beneficiary
0449;Mr Elliot Sanchez;DEU;W. Russell St. 48;94951;Penngrove;138-343-760;ESanchez@gmail.com;1981-10-25;prospect
0450;Mr Dexter Diaz;SHN;N Harrison St 27;04419;Carmel;298-521-714;DDiaz@gmail.com;1960-05-13;customer
0451;Mr Kameron Green;MEX;South Highway 8;05759;North Clarendon;;KGreen@gmail.com;1990-07-02;beneficiary
0452;Mr Alfredo Jones;VNM;W. Russell St. 23;29692;Ware Shoals;;AJones@msn.com;1982-12-15;prospect
0453;Mrs Georgia Flores;NLD;Lake Tahoe Blvd. 47;18214;Barnesville;;GFlores@gmail.com;1991-02-08;beneficiary
0454;Ms Rachel Allen;SDN;Cleveland Ave. 31;24808;Anawalt;988-198-412;RAllen@msn.com;1952-03-04;customer
0455;Ms Katie Wright;COM;Harry S Truman Blvd 10;37659;Jonesborough;474-824-034;KWright@gmail.com;1976-12-23;prospect
0456;Mrs Rebecca Perez;URY;El Camino Real 30;35548;Brilliant;;RPerez@yahoo.com;1954-11-14;customer
0457;Mrs Lucy Martinez;LAO;Steele Lane 40;02549;Mashpee;;LMartinez@gmail.com;1953-06-27;beneficiary
0458;Ms Alice Davis;MSR;Burnett Road 44;46171;Reelsville;161-766-185;ADavis@msn.com;1992-12-11;customer
0459;Mrs Zoe James;NFK;Jean de la Fontaine 21;23308;Bloxom;064-907-191;ZJames@msn.com;1976-12-14;customer
0460;Ms Isabella Howard;NFK;Monroe Street 27;78114;Floresville;;IHoward@gmail.com;1983-01-05;beneficiary
0461;Mr Kayden Wilson;GNB;E Fowler Avenue 7;45899;Wren;;KWilson@yahoo.com;1957-12-08;beneficiary
0462;Mr Jaylon Bryant;BOL;Newbury Road 42;47488;Hamblen;;JBryant@yahoo.com;2000-06-05;beneficiary
0463;Mr Devon Campbell;NAM;East Main Street 31;07922;Berkeley Heights;;DCampbell@gmail.com;1998-09-19;beneficiary
0464;Mr Ean Garcia;VIR;Cleveland Ave. 26;41419;Edna;444-306-361;EGarcia@gmail.com;1986-06-20;customer
0465;Mr Johnny Carter;QAT;Cabrillo Highway 32;79011;Briscoe;381-995-103;JCarter@yahoo.com;1963-08-24;customer
0466;Mr Efrain Cox;ISR;Carpinteria Avenue 46;05301;Brattleboro;;ECox@yahoo.com;1981-07-16;beneficiary
0467;Mr Jaydon Robinson;PAN;Padre Boulevard 29;48822;Eagle;;JRobinson@gmail.com;1962-03-22;beneficiary
0468;Mr Abraham Adams;BEN;South Highway 23;93205;Bodfish;;AAdams@gmail.com;1995-07-29;beneficiary
0469;Mr Derick Baker;ZAF;San Diego Freeway 21;15033;Donora;;DBaker@msn.com;1994-09-18;beneficiary
0470;Mr Earl Rivera;BFA;Castillo Drive 19;42715;Breeding;055-384-825;ERivera@gmail.com;1971-05-17;prospect
0471;Ms Rachel Rodriguez;GEO;Castillo Drive 24;27982;Waves;;RRodriguez@msn.com;1996-09-12;prospect
0472;Ms Abbie Ward;SCG;San Ysidro Blvd 23;39630;Bude;;AWard@yahoo.com;1983-05-31;beneficiary
0473;Mr Eli Foster;BWA;San Marcos 43;55940;Hayfield;;EFoster@yahoo.com;1998-12-09;prospect
0474;Mr Kaleb Barnes;VGB;San Diego Freeway 15;99751;Kobuk;;KBarnes@gmail.com;1977-07-13;beneficiary
0475;Ms Isabelle Hernandez;GRD;North Atherton Street 17;47302;Muncie;;IHernandez@msn.com;1966-01-19;beneficiary
0476;Mrs Emily Torres;KAZ;Jones Road 8;63850;Grayridge;807-196-613;ETorres@msn.com;1996-11-19;customer
0477;Ms Amber Morris;VEN;San Ysidro Blvd 13;90401;Santa Monica;089-251-07;AMorris@msn.com;1967-02-22;prospect
0478;Mrs Poppy Turner;GMB;N Kentwood 21;57767;Owanka;;PTurner@msn.com;2000-05-18;prospect
0479;Mr Jordon Davis;NFK;Castillo Drive 20;59710;Alder;990-078-708;JDavis@yahoo.com;1986-04-15;customer
0480;Ms Chloe Ross;SDN;Milpas Street 50;76034;Colleyville;073-980-517;CRoss@msn.com;1983-09-10;customer
0481;Ms Erin Price;MMR;San Simeon 44;50533;Eagle Grove;665-094-515;EPrice@yahoo.com;1955-01-17;prospect
0482;Mr Jayson Hernandez;SEN;Lake Tahoe Blvd. 29;17889;Winfield;;JHernandez@gmail.com;1977-10-13;beneficiary
0483;Mr Allan Williams;PRI;North Ventu Park Road 11;83334;Hansen;;AWilliams@gmail.com;1996-08-08;beneficiary
0484;Mrs Sophie Morris;ANT;Santa Rosa South 3;69030;Haigler;698-014-427;SMorris@msn.com;1972-11-05;prospect
0485;Mr Abel Bennett;EST;Jones Road 18;81636;Battlement Mesa;094-588-747;ABennett@msn.com;1979-11-10;prospect
0486;Mr Jonathan Simmons;SUR;W. Russell St. 4;23923;Charlotte Court House;024-729-223;JSimmons@yahoo.com;1954-06-21;prospect
0487;Mrs Eloise Evans;BIH;Castillo Drive 36;43334;Marengo;;EEvans@msn.com;1961-06-12;beneficiary
0488;Mr Ahmed Martinez;SCG;Harry S Truman Blvd 10;57049;North Sioux City;079-563-746;AMartinez@msn.com;2000-12-17;customer
0489;Mrs Samantha Gonzales;FRO;Carpinteria North 25;03049;Hollis;075-141-616;SGonzales@yahoo.com;1986-03-25;customer
0490;Ms Brooke Jones;FLK;Fairview Avenue 43;12514;Clinton Corners;634-434-329;BJones@gmail.com;1953-06-06;prospect
0491;Mrs Chloe Perry;GLP;Camelback Rd 28;04762;New Sweden;875-711-130;CPerry@msn.com;1953-08-23;prospect
0492;Mr Elliott Ross;ECU;Westside Freeway 8;08317;Dorothy;;ERoss@msn.com;1984-01-09;prospect
0493;Ms Danielle Richardson;JPN;Monroe Street 16;12442;Hunter;;DRichardson@msn.com;1998-05-17;prospect
0494;Mr Kane Moore;CZE;Erringer Road 46;59086;Wilsall;;KMoore@yahoo.com;1994-07-23;beneficiary
0495;Mr Jose Adams;HRV;North Ventu Park Road 37;36481;Vredenburgh;;JAdams@msn.com;1987-02-10;prospect
0496;Mr Ellis Reed;FSM;Via Real 46;43941;Piney Fork;600-792-544;EReed@msn.com;1990-01-12;customer
0497;Mr Eddy Perry;WLF;Katella Avenue 49;46710;Avilla;;EPerry@gmail.com;1994-10-27;prospect
0498;Mrs Lara Perry;FIN;San Simeon 7;12094;Johnsonville;316-129-955;LPerry@gmail.com;1999-09-13;customer
0499;Mr Josiah Henderson;PYF;Harbor Dr 15;14873;Prattsburgh;172-686-713;JHenderson@msn.com;1979-02-10;customer
0500;Mr Alexandro Kelly;LUX;Bailard Avenue 14;27948;Kill Devil Hills;;AKelly@gmail.com;1982-07-10;beneficiary
0501;Mr Jesse Torres;GIN;Redwood Highway 26;18072;Pen Argyl;;JTorres@yahoo.com;1988-10-15;prospect
0502;Mrs Bethany Adams;TKL;East Main Street 16;48049;North Street;129-198-195;BAdams@gmail.com;1954-08-16;customer
0503;Mrs Shannon Perez;CHL;Jones Road 49;79054;Lefors;037-093-467;SPerez@yahoo.com;1990-08-07;customer
0504;Mr Adam Thomas;BRN;S Rustle St 37;25645;Stirrat;392-124-661;AThomas@gmail.com;1995-11-15;customer
0505;Mr Jorden Lee;CYP;Carpinteria North 37;15868;Weedville;589-411-945;JLee@msn.com;1970-04-15;prospect
0506;Mr Angelo Peterson;LKA;Santa Monica Road 5;98239;Coupeville;;APeterson@yahoo.com;1989-01-18;prospect
0507;Mr Kayden Rodriguez;GRD;Tanger Blvd 50;95916;Berry Creek;;KRodriguez@gmail.com;1984-10-25;prospect
0508;Ms Libby Hill;STP;Moreno Drive 34;42039;Fancy Farm;468-395-603;LHill@gmail.com;1974-02-03;prospect
0509;Mr Julien Jones;KEN;S Rustle St 37;50034;Blairsburg;395-255-553;JJones@yahoo.com;1962-03-17;prospect
0510;Mrs Imogen Cox;MEX;East Main Street 33;43045;Milford Center;;ICox@yahoo.com;1963-03-10;beneficiary
0511;Mrs Bethany Murphy;CAF;Santa Ana Freeway 38;45816;Benton Ridge;;BMurphy@yahoo.com;1979-09-01;beneficiary
0512;Mr Armando Gray;KGZ;Richmond Hill 46;99551;Akiachak;541-022-901;AGray@yahoo.com;1974-06-14;customer
0513;Mrs Isobel Sanders;JOR;Grandview Drive 42;46779;Pleasant Lake;;ISanders@yahoo.com;1984-03-08;prospect
0514;Mr Addison King;GUM;Westside Freeway 14;28655;Morganton;991-337-124;AKing@msn.com;1962-05-01;customer
0515;Mr Deshawn Gonzalez;DNK;East Calle Primera 16;44264;Peninsula;;DGonzalez@yahoo.com;1999-06-12;beneficiary
0516;Mr Jovan Turner;IRQ;North Ventu Park Road 14;06387;Wauregan;;JTurner@yahoo.com;1999-03-15;prospect
0517;Mr Efren Taylor;PCN;San Diego Freeway 39;76485;Peaster;;ETaylor@gmail.com;1956-04-06;beneficiary
0518;Mr Jovany Williams;PER;Padre Boulevard 24;53040;Kewaskum;810-080-544;JWilliams@gmail.com;1969-10-29;customer
0519;Mr Anton Thompson;TUV;Fairview Avenue 2;15724;Cherry Tree;;AThompson@msn.com;1993-07-14;beneficiary
0520;Mrs Katherine Parker;IND;Corona Del Mar 11;32476;Lake Mary;;KParker@msn.com;1984-06-04;prospect
0521;Mr Jonah Hernandez;BIH;Newbury Road 49;17262;Spring Run;;JHernandez@gmail.com;1977-07-23;beneficiary
0522;Ms Alice Williams;CIV;Cerrillos Road 49;57357;Ravinia;853-352-486;AWilliams@yahoo.com;1977-10-27;prospect
0523;Mr Joaquin Henderson;GLP;Burnett Road 6;03229;Contoocook;;JHenderson@yahoo.com;1965-04-30;beneficiary
0524;Ms Isabelle Sanders;MYT;San Diego Freeway 21;67361;Sedan;610-826-877;ISanders@msn.com;1978-01-19;customer
0525;Ms Holly Roberts;KEN;Moreno Drive 46;36046;Lapine;;HRoberts@msn.com;1982-09-19;prospect
0526;Mr Jorge Diaz;BRN;Camelback Rd 19;20833;Brookeville;782-884-264;JDiaz@gmail.com;1953-02-19;customer
0527;Mr Ellis Hall;GUM;East Main Street 20;54728;Chetek;473-070-857;EHall@msn.com;1954-08-29;customer
0528;Mr Dwight Johnson;HRV;Harbor Dr 18;97753;Powell Butte;926-661-325;DJohnson@gmail.com;1966-09-30;prospect
0529;Mr Allen Henderson;ARE;N Kentwood 50;30263;Newnan;;AHenderson@gmail.com;1997-07-17;prospect
0530;Ms Evie Peterson;CUB;Santa Monica Road 24;54003;Beldenville;858-582-860;EPeterson@msn.com;1954-08-03;prospect
0531;Ms Summer Murphy;KGZ;Lake Tahoe Blvd. 25;97020;Donald;;SMurphy@gmail.com;1955-04-13;beneficiary
0532;Mr Jovan Baker;LBN;Newbury Road 14;70078;New Sarpy;429-507-611;JBaker@msn.com;1986-05-26;customer
0533;Mrs Jessica Griffin;EST;Lawrenceville Suwanee 43;84087;Woods Cross;179-527-651;JGriffin@gmail.com;1984-04-13;customer
0534;Ms Freya Allen;MDV;Fontaine Road 37;70549;Lake Arthur;;FAllen@msn.com;1984-08-03;beneficiary
0535;Ms Mollie Wood;JOR;S Rustle St 47;28451;Leland;;MWood@msn.com;1986-02-18;prospect
0536;Ms Danielle Ross;FRO;Timberlane Drive 18;74646;Nardin;;DRoss@gmail.com;1954-05-02;beneficiary
0537;Mr Alijah Foster;SDN;Bowles Avenue 50;62519;Cornland;598-588-337;AFoster@msn.com;1972-05-16;customer
0538;Mrs Paige Perez;MAR;San Simeon 35;12856;North River;;PPerez@msn.com;1984-08-20;prospect
0539;Mr Dominic Adams;UGA;French Camp Turnpike Road 11;12811;Bakers Mills;399-538-643;DAdams@gmail.com;1980-04-22;customer
0540;Mr Julio Bennett;CAF;Steele Lane 21;12911;Keeseville;241-084-485;JBennett@gmail.com;1964-03-03;prospect
0541;Mr Aidan Perry;MOZ;Carpinteria South 48;80863;Woodland Park;;APerry@yahoo.com;1993-01-05;beneficiary
0542;Mrs Erin Moore;ZWE;Tully Road East 23;97480;Swisshome;305-493-780;EMoore@yahoo.com;1973-12-24;prospect
0543;Mr Jesus Thomas;HMD;Cerrillos Road 12;37656;Fall Branch;;JThomas@yahoo.com;1957-02-07;beneficiary
0544;Ms Lucy Phillips;VAT;Grandview Drive 20;46057;Michigantown;;LPhillips@msn.com;1982-06-10;beneficiary
0545;Mr Alden Sanchez;HND;Katella Avenue 33;49055;Gobles;397-989-236;ASanchez@gmail.com;1975-06-25;prospect
0546;Mrs Hollie Scott;KEN;Cabrillo Highway 11;12855;North Hudson;248-725-813;HScott@gmail.com;1955-12-11;prospect
0547;Ms Evie Hernandez;GMB;Greenwood Road 44;44004;Ashtabula;;EHernandez@msn.com;1988-07-20;prospect
0548;Mrs Nicole Campbell;JAM;Padre Boulevard 29;15784;Worthville;731-885-946;NCampbell@yahoo.com;1988-03-18;customer
0549;Mr Judah Henderson;ETH;Carpinteria Avenue 27;34661;Nobleton;;JHenderson@msn.com;1955-11-11;beneficiary
0550;Mr Dorian Jackson;COG;E Fowler Avenue 9;99685;Unalaska;;DJackson@yahoo.com;2000-07-12;beneficiary
0551;Mr Devante Walker;UGA;Westside Freeway 7;53560;Mazomanie;;DWalker@gmail.com;1961-09-04;beneficiary
0552;Mrs Charlie Reed;EGY;Camelback Rd 34;38379;Stantonville;;CReed@yahoo.com;2000-01-19;prospect
0553;Mrs Kate Kelly;NIC;San Ysidro Blvd 15;12085;Guilderland Center;017-190-086;KKelly@gmail.com;1952-07-28;customer
0554;Mrs Chloe Gonzales;EST;Timberlane Drive 30;95312;Cressey;;CGonzales@yahoo.com;1996-08-19;prospect
0555;Mr August Campbell;ERI;N Harrison St 11;06405;Branford;253-593-359;ACampbell@gmail.com;1957-12-19;customer
0556;Ms Megan Bryant;BHS;North Broadway Street 35;74842;Fittstown;;MBryant@yahoo.com;1996-07-02;prospect
0557;Mr Austen Hayes;BRN;Castillo Drive 3;31793;Tifton;;AHayes@msn.com;1963-06-20;customer
0558;Mrs Megan Parker;LVA;Tully Road East 22;08742;Point Pleasant Beach;488-520-424;MParker@yahoo.com;1979-11-17;customer
0559;Mr Abraham Sanchez;KAZ;Jones Road 48;93960;Soledad;749-585-845;ASanchez@msn.com;1969-07-07;prospect
0560;Mr Emerson Walker;HTI;Corona Del Mar 35;95683;Sloughhouse;;EWalker@yahoo.com;1999-01-24;beneficiary
0561;Mr Dontae Lewis;VIR;Lake Tahoe Blvd. 32;48832;Elwell;306-638-857;DLewis@gmail.com;1953-09-18;prospect
0562;Mr Devan Green;SPM;South Highway 1;74530;Bromide;950-568-977;DGreen@yahoo.com;1993-12-31;customer
0563;Ms Jade Scott;GAB;Santa Ana Freeway 9;24219;Big Stone Gap;504-647-137;JScott@gmail.com;1962-07-07;customer
0564;Mrs Daisy Kelly;CHL;Milpas Street 10;73950;Turpin;717-378-600;DKelly@yahoo.com;1994-01-06;customer
0565;Mrs Charlotte Howard;CRI;E Fowler Avenue 24;99027;Otis Orchards;;CHoward@msn.com;1967-07-04;beneficiary
0566;Mr Devan Edwards;SUR;San Ysidro Blvd 11;38582;Silver Point;;DEdwards@msn.com;1992-02-29;customer
0567;Mrs Shannon Gonzalez;DEU;Tully Road East 9;54737;Eau Galle;;SGonzalez@yahoo.com;1980-06-20;beneficiary
0568;Mr Asa Roberts;TKM;East Fry Blvd. 1;08870;Readington;;ARoberts@msn.com;1993-03-04;prospect
0569;Mr Karl Evans;THA;Harry S Truman Blvd 48;41128;Carter;;KEvans@yahoo.com;1994-04-22;beneficiary
0570;Mrs Victoria Moore;TKL;San Simeon 21;29570;McColl;936-519-108;VMoore@msn.com;1979-08-12;prospect
0571;Mr Draven Peterson;LBR;San Ysidro Blvd 10;95497;The Sea Ranch;305-241-323;DPeterson@gmail.com;1975-11-05;prospect
0572;Mrs Mollie Moore;COD;Redwood Highway 8;47946;Francesville;595-710-768;MMoore@yahoo.com;1963-07-27;customer
0573;Mr Josiah Scott;UGA;Padre Boulevard 18;50430;Corwith;;JScott@yahoo.com;1953-05-21;beneficiary
0574;Mr Albert Anderson;MLI;South Highway 22;35746;Fackler;843-176-643;AAnderson@yahoo.com;1971-03-18;prospect
0575;Mr Kadin Murphy;CCK;Tanger Blvd 30;43557;Stryker;;KMurphy@yahoo.com;2000-03-12;prospect
0576;Mrs Grace Mitchell;ASM;San Diego Freeway 5;04541;Chamberlain;;GMitchell@msn.com;1956-03-13;beneficiary
0577;Mrs Jasmine Clark;KOR;N Harrison St 11;43407;Burgoon;;JClark@msn.com;2000-08-29;prospect
0578;Ms Aimee Martinez;MOZ;Tully Road East 5;01784;Woodville;;AMartinez@gmail.com;1984-06-15;prospect
0579;Ms Madeleine Bennett;NAM;E Fowler Avenue 43;28612;Connellys Springs;;MBennett@yahoo.com;1983-01-06;beneficiary
0580;Mrs Ella Washington;TZA;S Rustle St 32;0602;Aguada;459-349-975;EWashington@gmail.com;2000-01-20;customer
0581;Mrs Ella Alexander;COM;Tully Road East 42;32043;Green Cove Springs;722-441-728;EAlexander@yahoo.com;1966-01-16;customer
0582;Mr Josiah Young;AND;Cerrillos Road 45;61020;Davis Junction;;JYoung@gmail.com;1979-03-28;beneficiary
0583;Mr Andy Lopez;JPN;Santa Rosa North 14;08006;Barnegat Light;;ALopez@yahoo.com;1983-04-03;beneficiary
0584;Mr Justin Gray;DZA;Santa Monica Road 35;25977;Meadow Creek;;JGray@gmail.com;1979-03-25;beneficiary
0585;Mr Derek Price;SJM;East Fry Blvd. 10;27213;Bonlee;;DPrice@gmail.com;1964-04-05;beneficiary
0586;Ms Erin Cook;LAO;Lawrenceville Suwanee 39;03086;Wilton;557-257-800;ECook@yahoo.com;1985-01-28;customer
0587;Mrs Jessica Young;BTN;Lawrenceville Suwanee 5;02158;Newton;062-025-751;JYoung@msn.com;1966-08-09;prospect
0588;Mr Kayden Gonzales;COK;Woodson Rd. 23;07977;Peapack;;KGonzales@yahoo.com;1995-04-17;prospect
0589;Mr Alexandre Cox;DJI;Bailard Avenue 48;47453;Owensburg;068-396-916;ACox@gmail.com;1968-08-30;customer
0590;Ms Louise Robinson;PCN;Santa Monica Road 12;54130;Kaukauna;593-067-379;LRobinson@gmail.com;2000-09-18;customer
0591;Ms Katie White;COK;Lindbergh Blvd 26;63849;Gobler;548-755-562;KWhite@yahoo.com;1989-05-02;customer
0592;Mr Alden Mitchell;ESP;Harbor Dr 26;46985;Star City;;AMitchell@gmail.com;1961-02-03;beneficiary
0593;Mrs Georgina Garcia;UGA;North Ventu Park Road 7;59547;Zurich;551-579-584;GGarcia@gmail.com;1998-06-17;customer
0594;Mr Ahmad King;BOL;Bowles Avenue 43;16029;East Butler;;AKing@yahoo.com;1973-06-28;beneficiary
0595;Ms Isabelle Perez;GIB;W. Russell St. 29;71643;Gould;;IPerez@msn.com;1995-09-28;prospect
0596;Mr Angelo Hughes;LBN;East Fry Blvd. 3;05461;Hinesburg;209-394-986;AHughes@gmail.com;1962-02-28;customer
0597;Mr Kaleb Turner;LUX;Monroe Street 28;21627;Crocheron;;KTurner@gmail.com;2000-03-22;beneficiary
0598;Mr Jovany Richardson;KWT;Via Real 37;13112;Memphis;;JRichardson@msn.com;1987-05-09;beneficiary
0599;Mr Efrain Jackson;TKL;Via Real 11;67041;Elbing;592-848-941;EJackson@msn.com;1967-01-22;customer
0600;Mrs Courtney Lopez;LCA;San Ysidro Blvd 45;67449;Herington;044-046-631;CLopez@yahoo.com;1978-06-11;prospect
0601;Mr Jaylin Collins;ATF;San Simeon 27;15446;Indian Head;703-013-948;JCollins@gmail.com;1965-11-20;prospect
0602;Mrs Chloe Bailey;TUR;Pacific Hwy S 19;48733;Fairgrove;152-610-598;CBailey@yahoo.com;1968-08-18;prospect
0603;Mr Elisha Alexander;PLW;Bowles Avenue 19;65711;Mountain Grove;;EAlexander@yahoo.com;1996-06-28;beneficiary
0604;Mr Dwayne Hayes;BEL;North Erringer Road 31;97307;Keizer;;DHayes@gmail.com;1966-04-14;beneficiary
0605;Mr Adan Simmons;PAN;Carpinteria Avenue 38;12970;Paul Smiths;;ASimmons@gmail.com;1999-09-23;beneficiary
0606;Ms Hollie Henderson;VIR;Redwood Highway 11;20747;District Heights;;HHenderson@yahoo.com;1980-08-15;beneficiary
0607;Ms Paige Watson;BDI;Woodson Rd. 12;49791;Topinabee;322-138-888;PWatson@yahoo.com;1976-11-04;prospect
0608;Mrs Alice James;ISR;Burnett Road 10;56701;Thief River Falls;;AJames@yahoo.com;1994-06-26;prospect
0609;Mr Jaylin Lee;GEO;Fontaine Road 49;13740;Bovina Center;;JLee@msn.com;1958-09-01;beneficiary
0610;Mrs Victoria Sanchez;DEU;Santa Ana Freeway 50;82225;Lusk;277-955-726;VSanchez@yahoo.com;1977-04-17;prospect
0611;Mr Jayce Bennett;GIB;North Erringer Road 2;56444;Deerwood;244-759-955;JBennett@gmail.com;1959-09-30;prospect
0612;Mrs Emma Henderson;EGY;Santa Rosa South 30;28724;Dana;;EHenderson@yahoo.com;1984-02-28;beneficiary
0613;Mr Alden Davis;TGO;Grandview Drive 32;34652;New Port Richey;917-225-528;ADavis@yahoo.com;2000-02-22;customer
0614;Ms Eve Howard;DZA;North Atherton Street 18;25142;Nellis;;EHoward@gmail.com;1997-01-10;prospect
0615;Ms Eve Scott;GLP;Richmond Hill 31;07825;Blairstown;;EScott@msn.com;1992-04-14;prospect
0616;Mr Justyn Harris;BGR;East 1st Street 32;60914;Bourbonnais;;JHarris@gmail.com;1994-04-04;beneficiary
0617;Mr Alex Perry;IRN;East Main Street 24;97637;Plush;657-848-967;APerry@gmail.com;1993-10-12;customer
0618;Mr Desmond Hughes;SUR;North Broadway Street 24;96076;Platina;772-352-970;DHughes@msn.com;1978-10-29;customer
0619;Mrs Imogen Wilson;ETH;Greenwood Road 32;58423;Chaseley;920-357-670;IWilson@msn.com;1963-08-11;customer
0620;Ms Madeleine Russell;NFK;North Atherton Street 15;82729;Sundance;057-755-631;MRussell@gmail.com;1974-05-24;customer
0621;Mr Andy Hernandez;PER;Harbor Dr 32;17088;Schaefferstown;;AHernandez@msn.com;1984-10-25;prospect
0622;Ms Katherine Jenkins;LBN;East Main Street 47;05404;Winooski;266-782-400;KJenkins@gmail.com;1955-03-25;customer
0623;Mr Devin Jackson;SJM;N Harrison St 29;29333;Drayton;517-633-939;DJackson@msn.com;1994-03-06;customer
0624;Ms Rachel Green;MHL;North Preisker Lane 30;28671;Rutherford College;;RGreen@msn.com;2000-06-08;prospect
0625;Mrs Rebecca Evans;TKL;Calle Real 12;0669;Lares;;REvans@gmail.com;1991-12-26;prospect
0626;Mr Jeremiah Garcia;MDV;Padre Boulevard 20;99769;Savoonga;699-784-227;JGarcia@yahoo.com;1963-01-11;customer
0627;Ms Zara White;ITA;Greenwood Road 2;19534;Lenhartsville;281-102-976;ZWhite@yahoo.com;1953-12-15;customer
0628;Mr Jerome Richardson;AFG;Burnett Road 2;36456;McKenzie;765-191-622;JRichardson@gmail.com;1985-08-06;customer
0629;Mr Jesse Carter;CHE;San Diego Freeway 17;27969;Roduco;;JCarter@yahoo.com;1960-10-17;beneficiary
0630;Mr Julien Mitchell;IOT;Tully Road East 20;77950;Austwell;015-959-338;JMitchell@msn.com;1969-01-15;customer
0631;Ms Eve King;LBR;Harry S Truman Blvd 10;62017;Coffeen;;EKing@yahoo.com;1959-12-01;beneficiary
0632;Ms Rachel Phillips;CAF;San Simeon 43;17262;Spring Run;;RPhillips@msn.com;1991-01-15;prospect
0633;Mr Antoine Turner;TON;San Luis Obispo North 6;50252;Swan;542-660-241;ATurner@msn.com;1997-06-24;customer
0634;Mr Dion Moore;USA;San Luis Obispo North 3;47453;Owensburg;268-983-806;DMoore@yahoo.com;1963-03-03;customer
0635;Mrs Isabelle Clark;CAN;Santa Ana Freeway 7;50587;Rinard;;IClark@yahoo.com;1957-01-10;beneficiary
0636;Mr Efrain Coleman;GUY;Erringer Road 25;07960;Morristown;950-051-340;EColeman@msn.com;1960-08-08;customer
0637;Mrs Laura Parker;GRC;Timberlane Drive 14;54637;Hustler;797-313-062;LParker@gmail.com;1959-07-23;prospect
0638;Ms Amelia Hayes;SWE;South Roosevelt Drive 17;99657;Russian Mission;;AHayes@msn.com;1970-11-10;beneficiary
0639;Mr Demetrius Bell;FLK;W. Russell St. 2;44452;North Lima;901-626-663;DBell@msn.com;1993-08-13;customer
0640;Mr Adriel Moore;MRT;East 1st Street 49;26621;Flatwoods;;AMoore@msn.com;1957-07-31;customer
0641;Mr Joe Jones;ATF;S Rustle St 31;03872;Sanbornville;;JJones@gmail.com;1985-03-21;prospect
0642;Mrs Erin Davis;BEL;Richmond Hill 33;05360;West Wardsboro;;EDavis@gmail.com;1993-01-06;beneficiary
0643;Mr Elias Cox;JOR;Grandview Drive 2;12092;Howes Cave;;ECox@gmail.com;1997-11-09;prospect
0644;Mr Jerome Jones;NCL;Jones Road 48;56661;Northome;835-328-234;JJones@msn.com;1964-04-05;prospect
0645;Mr Andy Diaz;KOR;Milpas Street 10;47003;West College Corner;838-577-096;ADiaz@msn.com;1959-04-10;prospect
0646;Mr Anton Reed;AFG;Cabrillo Highway 37;57314;Artesian;782-778-474;AReed@yahoo.com;1963-12-21;customer
0647;Mr Jovani Ramirez;AGO;E Fowler Avenue 26;76427;Bryson;;JRamirez@gmail.com;1976-12-26;beneficiary
0648;Mr Alec Phillips;ATG;Katella Avenue 34;13439;Richfield Springs;857-463-896;APhillips@yahoo.com;1952-01-16;customer
0649;Mrs Yasmin Gonzales;CMR;Via Real 49;41385;Vancleve;;YGonzales@yahoo.com;1991-09-22;beneficiary
0650;Mrs Zoe Wood;BOL;Bayshore Freeway 26;48438;Goodrich;;ZWood@msn.com;1953-12-27;beneficiary
0651;Mr Eddy Griffin;NLD;Cerrillos Road 22;54107;Bonduel;03-262-076;EGriffin@gmail.com;1952-04-04;prospect
0652;Mrs Elizabeth Flores;BTN;Santa Rosa South 5;99927;Point Baker;512-225-758;EFlores@msn.com;1962-10-25;customer
0653;Ms Jennifer Young;GIB;Cleveland Ave. 42;74335;Cardin;;JYoung@yahoo.com;1968-11-30;beneficiary
0654;Mr Jorge Young;JPN;Lake Tahoe Blvd. 31;12747;Hurleyville;;JYoung@gmail.com;1979-12-24;beneficiary
0655;Mrs Jessica Reed;TZA;Santa Monica Road 17;26405;Moatsville;998-440-029;JReed@yahoo.com;2000-11-15;customer
0656;Ms Hollie Hughes;BWA;Padre Boulevard 37;05081;Wells River;;HHughes@gmail.com;1957-07-16;customer
0657;Mr Addison Butler;GIB;East Fry Blvd. 38;85616;Huachuca City;574-825-931;AButler@yahoo.com;1986-09-01;customer
0658;Ms Jasmine Simmons;SCG;Steele Lane 25;53150;Muskego;;JSimmons@gmail.com;1997-02-23;beneficiary
0659;Mr Amari Thompson;BGR;Tully Road East 31;15038;Elrama;153-190-930;AThompson@gmail.com;1959-06-11;prospect
0660;Ms Megan Parker;ARE;North Ventu Park Road 37;31735;Cobb;;MParker@msn.com;1978-06-21;beneficiary
0661;Mr Alan Moore;ATF;Carpinteria North 33;18701;Wilkes Barre;779-719-424;AMoore@gmail.com;1953-12-24;prospect
0662;Mr Josiah Rodriguez;PSE;Tully Road East 20;96096;Whitmore;762-207-521;JRodriguez@msn.com;1977-02-14;customer
0663;Mrs Libby Williams;ZWE;Padre Boulevard 29;58269;Osnabrock;946-865-081;LWilliams@yahoo.com;1952-07-26;customer
0664;Mrs Sophie Hernandez;PYF;Burnett Road 40;36279;Wellington;623-860-475;SHernandez@gmail.com;1976-03-14;prospect
0665;Mr Alvin Coleman;PER;Milpas Street 10;50467;Rock Falls;;AColeman@yahoo.com;1989-08-19;prospect
0666;Mr Deandre Rogers;TJK;South Roosevelt Drive 23;14415;Bellona;161-131-819;DRogers@gmail.com;1953-04-13;customer
0667;Ms Chloe Collins;CAF;Camelback Rd 48;28092;Lincolnton;;CCollins@yahoo.com;1968-11-13;beneficiary
0668;Ms Zara Price;MRT;Timberlane Drive 19;78952;Plum;;ZPrice@gmail.com;1983-08-20;beneficiary
0669;Ms Rachel Clark;NRU;San Luis Obispo North 30;62036;Golden Eagle;297-753-572;RClark@msn.com;1971-03-24;customer
0670;Mr Jaylen Morris;TTO;Santa Ana Freeway 13;60967;Stockland;;JMorris@yahoo.com;1982-03-10;prospect
0671;Mrs Niamh Jones;GEO;Carpinteria South 17;48739;Hale;;NJones@gmail.com;1980-08-14;customer
0672;Mr Jordy Perez;AUS;Corona Del Mar 32;77448;Hungerford;461-685-107;JPerez@yahoo.com;1965-08-22;prospect
0673;Mrs Jade Alexander;LTU;Padre Boulevard 42;99620;Kotlik;669-137-128;JAlexander@gmail.com;1969-08-12;customer
0674;Ms Niamh Johnson;ALB;East Main Street 18;30439;Metter;882-349-024;NJohnson@yahoo.com;1952-11-14;customer
0675;Mr Jaylon Edwards;BHS;Santa Ana Freeway 26;14740;Gerry;719-385-754;JEdwards@gmail.com;1985-08-09;customer
0676;Ms Alisha Murphy;CCK;East 1st Street 40;15851;Reynoldsville;673-780-307;AMurphy@msn.com;1967-09-19;customer
0677;Mr Jordon Brown;GRL;Hutchinson Rd 19;22655;Stephens City;897-399-136;JBrown@msn.com;1983-04-03;customer
0678;Ms Naomi Long;CRI;Santa Ana Freeway 5;56127;Dunnell;551-960-945;NLong@yahoo.com;1995-06-20;customer
0679;Mr Deonte Barnes;POL;Fairview Avenue 26;35111;McCalla;;DBarnes@yahoo.com;1967-08-09;beneficiary
0680;Ms Rachel Harris;SWZ;Westside Freeway 40;17935;Girardville;942-044-024;RHarris@gmail.com;1975-06-25;customer
0681;Mr Dominick Griffin;ESH;Tully Road East 42;28456;Riegelwood;697-02-459;DGriffin@msn.com;1955-01-11;prospect
0682;Mr Jude Anderson;ARM;Bowles Avenue 29;18456;Prompton;035-509-447;JAnderson@gmail.com;1977-07-09;prospect
0683;Mr Ariel Brooks;GRL;East Calle Primera 43;15533;Breezewood;608-795-102;ABrooks@gmail.com;1954-11-05;prospect
0684;Mr Dylon Turner;TKL;South Roosevelt Drive 25;08110;Pennsauken;175-250-258;DTurner@yahoo.com;1952-07-09;prospect
0685;Ms Sarah Collins;HKG;Tully Road East 44;96858;Fort Shafter;893-218-516;SCollins@yahoo.com;1965-01-19;prospect
0686;Ms Poppy Mitchell;STP;North Preisker Lane 15;80731;Haxtun;546-130-710;PMitchell@yahoo.com;1973-06-19;prospect
0687;Mr Efrain Kelly;MDV;Santa Rosa North 29;50056;Colo;379-860-540;EKelly@msn.com;1998-11-08;customer
0688;Mr Abel Bell;GHA;Castillo Drive 28;17743;Leroy;;ABell@msn.com;1961-07-20;customer
0689;Ms Ellie Baker;UKR;Cleveland Ave. 47;72425;Delaplaine;931-818-668;EBaker@yahoo.com;1979-06-23;prospect
0690;Mrs Emily Edwards;SHN;Calle Real 40;99647;Pedro Bay;;EEdwards@gmail.com;1986-04-16;beneficiary
0691;Ms Laura Edwards;TJK;North Erringer Road 36;53086;Slinger;;LEdwards@gmail.com;1997-07-30;beneficiary
0692;Mr Ahmed Kelly;UGA;Santa Monica Road 34;36320;Cottonwood;;AKelly@gmail.com;2000-03-08;prospect
0693;Mr Devon Alexander;FIN;Santa Ana Freeway 46;03246;Laconia;177-663-803;DAlexander@gmail.com;1973-06-10;customer
0694;Mrs Caitlin Rivera;HMD;Woodson Rd. 6;26218;French Creek;;CRivera@yahoo.com;1967-03-01;beneficiary
0695;Ms Jodie Ward;TJK;Burnett Road 43;55384;Spring Park;;JWard@gmail.com;1982-06-01;beneficiary
0696;Mrs Bethany Harris;SUR;East Calle Primera 14;15063;Monongahela;;BHarris@yahoo.com;1993-10-01;beneficiary
0697;Mr Elijah Wood;DEU;Newbury Road 41;10537;Lake Peekskill;;EWood@msn.com;1983-02-24;beneficiary
0698;Mrs Chelsea Smith;HND;N Kentwood 47;17008;Bowmansdale;289-705-086;CSmith@gmail.com;1978-12-08;customer
0699;Mr Kade Washington;GEO;San Ysidro Blvd 46;17543;Lititz;;KWashington@yahoo.com;1984-01-09;prospect
0700;Mr Eric Griffin;ESP;Jones Road 13;58554;Mandan;754-892-933;EGriffin@msn.com;1961-01-28;prospect
0701;Ms Victoria Adams;NIU;Milpas Street 10;79019;Claude;;VAdams@gmail.com;1977-10-21;beneficiary
0702;Mr Elliot Williams;SEN;Bayshore Freeway 3;83234;Downey;;EWilliams@msn.com;1984-11-04;prospect
0703;Mr Adan Perry;GEO;Santa Rosa North 14;61742;Goodfield;;APerry@gmail.com;1994-04-19;beneficiary
0704;Mr Jimmy Bennett;CIV;E Fowler Avenue 44;47610;Chandler;802-266-396;JBennett@yahoo.com;1963-08-23;customer
0705;Mrs Evie Jones;NPL;North Atherton Street 44;17026;Fredericksburg;679-682-992;EJones@msn.com;1968-10-08;customer
0706;Mr Dylan Bailey;PNG;Corona Del Mar 35;25202;Tornado;432-579-792;DBailey@msn.com;1953-08-14;customer
0707;Mr Alejandro Turner;EGY;Westside Freeway 39;53969;Wyocena;;ATurner@msn.com;1973-09-22;beneficiary
0708;Ms Morgan Torres;MWI;North Ventu Park Road 28;98569;Ocean Shores;;MTorres@msn.com;1985-02-26;prospect
0709;Ms Olivia Edwards;GEO;Lake Tahoe Blvd. 12;67361;Sedan;280-768-996;OEdwards@gmail.com;1964-10-22;prospect
0710;Mrs Courtney Lopez;VGB;Carpinteria North 47;35053;Crane Hill;405-019-471;CLopez@msn.com;1998-12-15;customer
0711;Ms Brooke Miller;SYR;Lake Tahoe Blvd. 26;32046;Hilliard;;BMiller@msn.com;1996-12-05;beneficiary
0712;Mr Edward Adams;TZA;French Camp Turnpike Road 28;56679;South International Falls;;EAdams@yahoo.com;2000-08-24;customer
0713;Ms Yasmin Patterson;NZL;Jean de la Fontaine 26;43439;Lacarne;;YPatterson@yahoo.com;1996-01-09;beneficiary
0714;Mrs Eve Price;CXR;Santa Rosa South 40;75058;Gunter;;EPrice@msn.com;1998-04-17;prospect
0715;Mrs Rosie Collins;WSM;Padre Boulevard 22;48754;Owendale;795-635-949;RCollins@msn.com;1959-10-06;customer
0716;Mr Justus Hall;TWN;Woodson Rd. 1;08878;South Amboy;;JHall@msn.com;1974-04-26;beneficiary
0717;Ms Amelia Collins;TON;N Harrison St 9;66518;Oketo;922-431-259;ACollins@yahoo.com;1977-01-24;prospect
0718;Mrs Laura Gray;ANT;San Simeon 45;70390;Napoleonville;597-630-321;LGray@yahoo.com;1979-02-14;prospect
0719;Mrs Danielle Perry;GEO;Cleveland Ave. 4;14521;Ovid;244-854-185;DPerry@yahoo.com;1980-08-26;prospect
0720;Mrs Isabel Russell;MSR;Hutchinson Rd 36;25505;Big Creek;260-377-452;IRussell@yahoo.com;1958-02-21;customer
0721;Ms Millie Kelly;NFK;N Kentwood 29;37138;Old Hickory;;MKelly@msn.com;1967-08-16;beneficiary
0722;Ms Daisy Patterson;KEN;Lindbergh Blvd 4;76518;Buckholts;;DPatterson@gmail.com;1958-06-08;beneficiary
0723;Mr Drew Bell;VIR;North Ventu Park Road 28;46967;Onward;908-592-982;DBell@gmail.com;1955-07-21;prospect
0724;Mr Axel Simmons;GRL;Corona Del Mar 37;35971;Fyffe;162-558-934;ASimmons@gmail.com;1983-06-05;customer
0725;Mr Deandre Hernandez;BRB;North Erringer Road 42;38874;Toccopola;033-169-352;DHernandez@yahoo.com;1969-04-04;prospect
0726;Mr Abel Miller;ESH;Burnett Road 3;27932;Edenton;106-088-604;AMiller@yahoo.com;1960-10-16;prospect
0727;Mrs Phoebe Russell;CRI;Moreno Drive 19;17249;Rockhill Furnace;;PRussell@yahoo.com;1977-03-06;beneficiary
0728;Mr Alberto Jenkins;LSO;Westside Freeway 30;54644;Mindoro;;AJenkins@yahoo.com;1988-01-06;beneficiary
0729;Mr Johnathan Reed;CPV;E Fowler Avenue 12;60064;North Chicago;934-658-976;JReed@yahoo.com;1970-09-24;prospect
0730;Mrs Libby Taylor;BLZ;Calle Real 4;73716;Aline;607-913-779;LTaylor@msn.com;1974-02-21;prospect
0731;Mr Jermaine Lewis;MUS;Westside Freeway 3;46045;Goldsmith;828-282-548;JLewis@yahoo.com;1998-08-31;customer
0732;Mrs Millie Scott;JOR;East 1st Street 1;80742;New Raymer;;MScott@gmail.com;1956-09-09;beneficiary
0733;Ms Madison Martin;MMR;South Roosevelt Drive 10;04690;West Tremont;;MMartin@yahoo.com;1985-05-01;prospect
0734;Mr John Diaz;MLI;San Marcos 16;34690;Holiday;;JDiaz@yahoo.com;1954-07-31;beneficiary
0735;Mrs Danielle Thompson;GUM;Lindbergh Blvd 3;87301;Gallup;857-125-356;DThompson@msn.com;1970-03-11;customer
0736;Mr Antwan Bell;BMU;French Camp Turnpike Road 48;19539;Mertztown;;ABell@yahoo.com;1972-12-03;beneficiary
0737;Mr Jefferson Thomas;AIA;East Calle Primera 49;17352;New Park;179-874-927;JThomas@yahoo.com;1966-01-02;prospect
0738;Ms Imogen Miller;AIA;North Ventu Park Road 8;24464;Montebello;934-274-338;IMiller@msn.com;1986-01-17;customer
0739;Mrs Maisie Davis;BGD;Carpinteria Avenue 35;57339;Fort Thompson;;MDavis@yahoo.com;1992-09-13;beneficiary
0740;Mr Arthur Miller;CRI;Jean de la Fontaine 18;66031;New Century;981-797-928;AMiller@yahoo.com;1959-08-13;customer
0741;Mr Andy Stewart;ZAF;Jones Road 6;63048;Herculaneum;321-369-053;AStewart@yahoo.com;1978-09-21;prospect
0742;Mr Alfred Price;PNG;Carpinteria South 47;74653;Tonkawa;;APrice@msn.com;1989-08-07;prospect
0743;Ms Jasmine Miller;CHE;Pacific Hwy S 50;39564;Ocean Springs;283-569-882;JMiller@yahoo.com;1998-04-09;customer
0744;Ms Mollie Flores;LKA;North Erringer Road 45;14886;Trumansburg;;MFlores@gmail.com;1988-08-08;prospect
0745;Mrs Danielle Brooks;GAB;Tully Road East 17;07023;Fanwood;;DBrooks@yahoo.com;1953-10-16;beneficiary
0746;Mr Eduardo Rivera;COL;North Broadway Street 30;18245;Quakake;;ERivera@msn.com;1965-06-09;beneficiary
0747;Ms Brooke Evans;LBR;Greenwood Road 9;14822;Canaseraga;;BEvans@msn.com;1997-06-04;beneficiary
0748;Mr Ali Evans;TLS;Padre Boulevard 37;42455;Sebree;485-158-170;AEvans@msn.com;1976-11-20;prospect
0749;Mr Julius Griffin;SGP;W. Russell St. 28;21872;Whaleyville;;JGriffin@msn.com;1954-10-10;beneficiary
0750;Ms Imogen Reed;MYS;Milpas Street 21;98817;Chelan Falls;571-226-505;IReed@gmail.com;1956-12-26;customer
0751;Mrs Isabelle Green;ARE;East 1st Street 46;48465;Palms;468-373-936;IGreen@yahoo.com;1981-12-28;customer
0752;Mr Dorian Wilson;SVK;North Preisker Lane 16;04411;Bradley;748-835-245;DWilson@msn.com;1979-07-08;customer
0753;Ms Grace Nelson;TCD;E Fowler Avenue 38;45159;New Vienna;;GNelson@yahoo.com;1999-06-07;prospect
0754;Mr Elisha Russell;NLD;Bayshore Freeway 16;76862;Millersview;440-746-762;ERussell@gmail.com;1978-09-23;customer
0755;Ms Nicole Baker;SYC;Castillo Drive 3;36092;Wetumpka;103-415-168;NBaker@msn.com;1972-01-13;prospect
0756;Mr Kaiden Peterson;BEL;Tully Road East 29;98349;Lakebay;054-270-824;KPeterson@yahoo.com;1992-08-06;customer
0757;Mr Jett Jones;KEN;Timberlane Drive 8;81630;De Beque;845-385-977;JJones@gmail.com;1985-04-08;customer
0758;Mr Julian Gray;EGY;Apalachee Parkway 44;40027;Harrods Creek;950-913-678;JGray@yahoo.com;1957-06-14;customer
0759;Mr Joshua Simmons;MEX;Castillo Drive 3;88072;Vado;883-608-527;JSimmons@yahoo.com;1985-03-25;customer
0760;Mr Jose Ramirez;NGA;Cerrillos Road 13;46381;Thayer;501-592-566;JRamirez@yahoo.com;1960-02-18;prospect
0761;Ms Alice Wilson;OMN;W. Russell St. 17;08601;Trenton;;AWilson@gmail.com;1974-07-21;beneficiary
0762;Mr Augustus Carter;GRC;East Fry Blvd. 11;26237;Tallmansville;;ACarter@yahoo.com;1976-05-21;beneficiary
0763;Ms Jessica Wright;SWE;North Atherton Street 41;06064;Poquonock;646-736-450;JWright@gmail.com;1976-08-21;customer
0764;Ms Amy Cook;NZL;Carpinteria North 6;13364;Leonardsville;;ACook@yahoo.com;1984-06-14;prospect
0765;Mr Julien Patterson;GNB;San Marcos 15;45767;New Matamoras;;JPatterson@gmail.com;1957-07-28;beneficiary
0766;Mrs Courtney James;ESP;Jones Road 49;62010;Bethalto;646-421-438;CJames@msn.com;1962-05-21;customer
0767;Mr Devante Torres;PER;Cabrillo Highway 44;42452;Robards;;DTorres@msn.com;1991-10-09;prospect
0768;Mr Adolfo King;MHL;Fontaine Road 24;65320;Arrow Rock;;AKing@yahoo.com;1990-03-31;beneficiary
0769;Mrs Elizabeth Gonzalez;MDA;Cerrillos Road 43;18401;Aldenville;;EGonzalez@msn.com;1986-04-10;beneficiary
0770;Mrs Jessica Jones;COM;San Ysidro Blvd 27;32460;Sneads;;JJones@msn.com;1960-06-02;beneficiary
0771;Mrs Ella Gonzales;LIE;Carpinteria North 14;54526;Glen Flora;;EGonzales@msn.com;1989-12-10;beneficiary
0772;Mr Jaydon Price;KAZ;Castillo Drive 28;54952;Menasha;08-779-018;JPrice@gmail.com;1996-01-23;customer
0773;Ms Isabella Ramirez;GUY;Padre Boulevard 30;70030;Des Allemands;169-924-291;IRamirez@yahoo.com;1981-04-30;prospect
0774;Mr Emilio Thompson;BEN;Bailard Avenue 9;04786;Washburn;701-465-952;EThompson@yahoo.com;1990-01-11;customer
0775;Mr Derrick Moore;MYS;Bailard Avenue 16;27943;Hatteras;718-434-977;DMoore@gmail.com;1962-01-08;prospect
0776;Ms Charlie White;AZE;Harbor Dr 50;64855;Oronogo;844-138-072;CWhite@msn.com;1981-12-18;prospect
0777;Ms Alexandra Rodriguez;MDG;W. Russell St. 1;15066;New Brighton;795-644-377;ARodriguez@yahoo.com;1970-01-02;prospect
0778;Mr Donte Campbell;GUM;Lake Tahoe Blvd. 3;23915;Baskerville;823-521-917;DCampbell@msn.com;1956-09-23;customer
0779;Mrs Ellie Lewis;MOZ;North Erringer Road 28;57259;Revillo;751-522-532;ELewis@yahoo.com;1953-10-22;customer
0780;Ms Hollie Perez;SEN;Castillo Drive 18;06474;North Westchester;;HPerez@yahoo.com;1991-04-09;beneficiary
0781;Mr Dwayne Campbell;HTI;East Main Street 1;61435;Gerlaw;450-205-699;DCampbell@msn.com;1970-01-01;customer
0782;Mr Efren Rodriguez;AUS;Woodson Rd. 20;33036;Islamorada;569-947-334;ERodriguez@msn.com;1966-06-01;prospect
0783;Mr Alexis Johnson;MCO;San Marcos 23;99144;Lamona;679-656-452;AJohnson@msn.com;1960-09-29;prospect
0784;Mrs Naomi Rodriguez;GMB;Santa Ana Freeway 41;76887;Voca;;NRodriguez@yahoo.com;1962-02-06;beneficiary
0785;Ms Eleanor Russell;IRL;Bayshore Freeway 13;82941;Pinedale;;ERussell@msn.com;1992-02-05;beneficiary
0786;Mr Dexter Lee;BDI;North Preisker Lane 1;26641;Wilsie;;DLee@yahoo.com;1981-10-25;beneficiary
0787;Ms Jennifer Robinson;ARG;Padre Boulevard 49;12537;Hughsonville;;JRobinson@yahoo.com;1997-12-29;prospect
0788;Mrs Louise Murphy;SYC;North Ventu Park Road 27;28611;Collettsville;221-762-621;LMurphy@yahoo.com;1997-07-25;customer
0789;Ms Laura Wilson;BLZ;Tully Road East 1;16159;West Middlesex;032-701-341;LWilson@msn.com;1955-12-16;prospect
0790;Mrs Georgia Sanders;PRI;N Harrison St 26;43433;Gypsum;334-346-993;GSanders@gmail.com;1981-05-06;customer
0791;Ms Freya Wood;ARE;Newbury Road 10;58240;Hatton;;FWood@yahoo.com;1955-09-14;beneficiary
0792;Mr Edgar Thomas;AFG;French Camp Turnpike Road 38;43752;Laings;;EThomas@msn.com;1961-10-30;beneficiary
0793;Mrs Amy Wright;GRC;Katella Avenue 30;51250;Sioux Center;283-786-438;AWright@msn.com;1977-07-05;prospect
0794;Mr Ariel Johnson;COK;North Preisker Lane 8;27956;Maple;444-116-530;AJohnson@yahoo.com;1988-03-28;customer
0795;Mr Domenic Bryant;FIN;N Harrison St 32;12742;Harris;754-177-842;DBryant@msn.com;1970-07-22;prospect
0796;Ms Jade Murphy;SUR;Carpinteria South 36;30533;Dahlonega;;JMurphy@gmail.com;1998-09-24;beneficiary
0797;Ms Leah Wilson;KWT;Richmond Hill 44;95689;Volcano;775-546-309;LWilson@msn.com;1997-07-09;customer
0798;Mr Aidan Parker;GAB;Harbor Dr 27;01985;West Newbury;;AParker@msn.com;1984-08-29;prospect
0799;Mr Alexandro Coleman;YEM;Grandview Drive 4;02646;Harwich Port;;AColeman@yahoo.com;1996-04-13;beneficiary
0800;Ms Rosie Barnes;RUS;Santa Rosa South 44;12439;Hensonville;;RBarnes@msn.com;1970-10-08;beneficiary
0801;Mr Antwan Jackson;NPL;East Main Street 43;78560;La Joya;;AJackson@gmail.com;1988-08-16;beneficiary
0802;Ms Jade Taylor;ATF;Santa Ana Freeway 50;63533;Brashear;;JTaylor@gmail.com;1998-11-27;prospect
0803;Mr Donald Turner;MLT;North Atherton Street 4;04427;Corinth;727-655-359;DTurner@gmail.com;1956-02-02;customer
0804;Ms Jessica Reed;PRK;Corona Del Mar 12;35956;Boaz;;JReed@yahoo.com;1998-05-05;beneficiary
0805;Mrs Niamh Coleman;DEU;Hutchinson Rd 4;36080;Titus;269-066-200;NColeman@yahoo.com;1982-08-19;customer
0806;Mr Earl Gonzalez;SGS;Fontaine Road 11;72554;Mammoth Spring;742-988-126;EGonzalez@msn.com;1976-06-03;prospect
0807;Mrs Shannon Rodriguez;GUM;Steele Lane 29;29456;Ladson;;SRodriguez@gmail.com;1983-02-15;beneficiary
0808;Ms Eve Flores;MYT;San Simeon 29;78001;Artesia Wells;883-425-284;EFlores@msn.com;1979-09-02;customer
0809;Mrs Ruby Parker;NFK;Carpinteria South 14;35127;Pleasant Grove;489-050-029;RParker@gmail.com;1959-01-04;prospect
0810;Mr Desmond Turner;ARG;Steele Lane 4;85928;Heber;052-015-983;DTurner@msn.com;1968-09-24;prospect
0811;Mrs Erin Smith;SVK;Fairview Avenue 33;58454;Jud;305-876-976;ESmith@yahoo.com;1955-10-27;customer
0812;Mr Angelo Watson;KHM;Hutchinson Rd 13;45387;Yellow Springs;;AWatson@msn.com;1986-04-08;beneficiary
0813;Ms Danielle Green;MNG;Lawrenceville Suwanee 14;56055;Lake Crystal;293-140-749;DGreen@gmail.com;1956-04-28;prospect
0814;Mr Eliseo Williams;TWN;San Marcos 22;30448;Nunez;157-887-393;EWilliams@yahoo.com;1989-09-29;customer
0815;Mr Alberto Robinson;MNG;Carpinteria Avenue 39;26562;Burton;;ARobinson@gmail.com;1966-01-29;beneficiary
0816;Mr Jose Long;SJM;Lawrenceville Suwanee 25;93260;Posey;504-682-946;JLong@gmail.com;1978-11-15;customer
0817;Mrs Madison Torres;REU;Santa Ana Freeway 29;19517;Dauberville;;MTorres@msn.com;1998-05-14;beneficiary
0818;Ms Imogen Wood;RUS;San Ysidro Blvd 46;19452;Miquon;991-286-743;IWood@gmail.com;1959-07-12;prospect
0819;Ms Eve Martin;SLV;Calle Real 49;39360;Shubuta;976-853-680;EMartin@msn.com;1990-01-22;customer
0820;Mr Emilio Allen;PRT;San Simeon 28;83855;Potlatch;;EAllen@msn.com;1964-04-11;beneficiary
0821;Mr Justyn Brown;KHM;North Ventu Park Road 47;87053;San Ysidro;;JBrown@yahoo.com;1956-03-18;beneficiary
0822;Mrs Isobel Ward;USA;Pacific Hwy S 10;12859;Porter Corners;;IWard@msn.com;1967-08-01;beneficiary
0823;Ms Jodie Taylor;BTN;French Camp Turnpike Road 10;63446;Knox City;;JTaylor@gmail.com;1981-08-23;beneficiary
0824;Mr Abram Williams;TCA;North Erringer Road 45;27506;Buies Creek;258-798-203;AWilliams@yahoo.com;1966-10-20;prospect
0825;Mr Jaylen Richardson;IND;San Diego Freeway 44;41774;Viper;;JRichardson@gmail.com;1967-09-12;beneficiary
0826;Mrs Louise James;BMU;N Kentwood 32;83622;Garden Valley;553-572-345;LJames@gmail.com;1999-05-18;customer
0827;Mr Efren Watson;LTU;E Fowler Avenue 8;33047;West Little River;;EWatson@gmail.com;1952-10-14;beneficiary
0828;Mr Jimmy Cox;BWA;North Erringer Road 48;49446;New Era;506-393-058;JCox@gmail.com;1962-07-30;customer
0829;Mr Abram Young;DNK;Burnett Road 50;01229;Glendale;649-347-413;AYoung@yahoo.com;1964-08-11;customer
0830;Mr Jeremy Sanders;VAT;Carpinteria Avenue 10;54457;Nekoosa;;JSanders@msn.com;1976-06-21;beneficiary
0831;Mrs Amber Scott;SHN;East Main Street 2;78664;Round Rock;;AScott@msn.com;1959-10-15;customer
0832;Mr Jay Thomas;IDN;W. Russell St. 35;18334;Long Pond;021-917-471;JThomas@yahoo.com;1980-03-06;customer
0833;Mr Efren Allen;JOR;E Fowler Avenue 41;20617;Bryantown;146-104-489;EAllen@gmail.com;1968-01-11;prospect
0834;Mr Dwayne Brooks;WSM;Camelback Rd 30;30170;Roopville;;DBrooks@gmail.com;1967-01-04;beneficiary
0835;Mrs Rachel Mitchell;JPN;Pacific Hwy S 46;98929;Goose Prairie;872-482-507;RMitchell@yahoo.com;2000-01-18;customer
0836;Mr Edgardo Garcia;BGR;North Broadway Street 44;06085;Unionville;;EGarcia@gmail.com;1982-02-04;beneficiary
0837;Mrs Libby Moore;TKM;San Simeon 9;16641;Gallitzin;;LMoore@gmail.com;1982-01-26;prospect
0838;Mrs Lily Young;BMU;N Kentwood 16;59936;West Glacier;;LYoung@gmail.com;1970-03-13;beneficiary
0839;Ms Chelsea Thompson;NGA;Bailard Avenue 1;38916;Calhoun City;;CThompson@yahoo.com;1979-07-16;beneficiary
0840;Mr Elisha Hill;SGS;East Main Street 48;18928;Holicong;;EHill@yahoo.com;1989-11-18;beneficiary
0841;Mr Deon Green;GRL;Jean de la Fontaine 14;74468;Wainwright;;DGreen@gmail.com;1984-09-03;beneficiary
0842;Mr Dion Anderson;EGY;East Calle Primera 28;19520;Elverson;;DAnderson@gmail.com;1996-01-04;prospect
0843;Mr Jesse Barnes;SLV;San Luis Obispo North 28;18160;Tunkhannock;718-545-950;JBarnes@gmail.com;1977-06-23;prospect
0844;Mrs Amy Baker;SPM;S Rustle St 42;38852;Iuka;975-199-052;ABaker@msn.com;1994-05-04;customer
0845;Mr Alec Russell;MAC;San Marcos 43;58746;Kenmare;;ARussell@gmail.com;1977-12-11;beneficiary
0846;Mrs Zara Walker;STP;North Atherton Street 45;97057;Shaniko;;ZWalker@yahoo.com;1968-09-16;beneficiary
0847;Mr Adrian Thompson;IRL;Harbor Dr 12;18464;Tafton;730-982-738;AThompson@msn.com;1998-12-23;customer
0848;Mr Drew Henderson;BMU;East Fry Blvd. 26;03082;Lyndeborough;;DHenderson@gmail.com;1976-11-28;customer
0849;Mr Deangelo Walker;MLT;Timberlane Drive 50;44428;Kinsman;;DWalker@msn.com;1992-01-19;prospect
0850;Mr Enrique Stewart;BRB;San Ysidro Blvd 5;67337;Coffeyville;516-659-947;EStewart@gmail.com;1962-01-16;prospect
0851;Mrs Amber Robinson;TUR;Corona Del Mar 39;67650;Morland;;ARobinson@yahoo.com;1993-12-02;prospect
0852;Mr Jay Kelly;BMU;East Calle Primera 7;03276;Tilton;;JKelly@msn.com;1973-08-27;beneficiary
0853;Mrs Lauren Jackson;HRV;Santa Rosa North 1;52040;Dyersville;;LJackson@gmail.com;1986-12-07;beneficiary
0854;Mr Ari Coleman;JOR;South Roosevelt Drive 18;18470;Union Dale;;AColeman@gmail.com;1975-11-12;beneficiary
0855;Ms Morgan Peterson;MTQ;San Ysidro Blvd 16;56654;Loman;;MPeterson@msn.com;1966-06-05;beneficiary
0856;Ms Charlotte Kelly;NOR;Grandview Drive 40;81084;Two Buttes;869-323-722;CKelly@msn.com;1954-01-23;prospect
0857;Mr Jett Ramirez;NGA;Lake Tahoe Blvd. 11;21762;Libertytown;948-05-969;JRamirez@gmail.com;1973-05-14;prospect
0858;Mr Asa Moore;PRT;South Highway 36;41655;Printer;297-574-622;AMoore@msn.com;1998-03-23;customer
0859;Mr Jude Clark;AIA;French Camp Turnpike Road 5;50592;Truesdale;755-830-894;JClark@gmail.com;1970-04-15;customer
0860;Mr Jaylan Mitchell;GNQ;North Erringer Road 19;51461;Schleswig;;JMitchell@yahoo.com;1998-05-25;prospect
0861;Mr Austen Long;IRN;Carpinteria South 16;34449;Inglis;025-233-788;ALong@msn.com;1957-06-05;prospect
0862;Mrs Morgan Thomas;RWA;Newbury Road 39;92275;Salton City;;MThomas@gmail.com;1953-02-18;beneficiary
0863;Mrs Courtney Gonzalez;SYR;W. Russell St. 11;02093;Wrentham;113-828-165;CGonzalez@yahoo.com;1972-09-05;customer
0864;Mr Jaydon Baker;GNQ;Carpinteria North 14;32046;Hilliard;380-353-916;JBaker@gmail.com;1963-08-01;prospect
0865;Mr Asa Griffin;SAU;Monroe Street 24;11796;West Sayville;024-543-539;AGriffin@gmail.com;1992-06-30;customer
0866;Ms Ellie Williams;MLI;Lindbergh Blvd 17;17957;Muir;457-771-598;EWilliams@gmail.com;1973-10-01;prospect
0867;Mr Alec Roberts;THA;Cabrillo Highway 20;15554;New Paris;;ARoberts@msn.com;1970-03-10;beneficiary
0868;Ms Aaliyah Ramirez;MNG;South Roosevelt Drive 24;39758;Sturgis;247-284-203;ARamirez@msn.com;1972-05-13;customer
0869;Mr Abram Davis;BLZ;Westside Freeway 37;24957;Maxwelton;108-375-131;ADavis@gmail.com;1973-10-16;prospect
0870;Mrs Millie Phillips;GNQ;Katella Avenue 26;24867;New Richmond;;MPhillips@yahoo.com;1957-12-04;beneficiary
0871;Mrs Lydia Butler;PER;Tanger Blvd 50;07833;Delaware;704-876-917;LButler@msn.com;1990-08-28;customer
0872;Mrs Charlie Harris;GHA;North Broadway Street 19;61949;Redmon;;CHarris@msn.com;1997-03-30;beneficiary
0873;Mrs Summer Roberts;FRO;North Ventu Park Road 50;64491;Tarkio;499-634-264;SRoberts@msn.com;1984-12-13;customer
0874;Mrs Megan Simmons;GLP;Padre Boulevard 37;19017;Chester Heights;476-210-622;MSimmons@msn.com;1960-09-12;prospect
0875;Mrs Maisie Anderson;CAF;Pacific Hwy S 20;42211;Cadiz;017-081-461;MAnderson@yahoo.com;1969-12-06;customer
0876;Mr Josiah Patterson;VCT;Newbury Road 19;67762;Weskan;520-219-492;JPatterson@gmail.com;1967-04-23;prospect
0877;Mrs Kate Lopez;CRI;Westside Freeway 41;02559;Pocasset;;KLopez@msn.com;1999-12-08;prospect
0878;Mr Jesus Rivera;ROU;Steele Lane 11;85638;Tombstone;091-999-973;JRivera@msn.com;1970-05-01;customer
0879;Mr Agustin Mitchell;BWA;Richmond Hill 20;93924;Carmel Valley;;AMitchell@gmail.com;1998-04-16;beneficiary
0880;Mrs Lara Barnes;HKG;Milpas Street 22;07656;Park Ridge;207-166-738;LBarnes@msn.com;1957-07-23;prospect
0881;Mrs Zoe Bennett;GNQ;Hutchinson Rd 14;55746;Hibbing;999-910-177;ZBennett@yahoo.com;1968-09-10;prospect
0882;Mr Alexander Stewart;MTQ;Via Real 4;54513;Brantwood;;AStewart@msn.com;1988-12-15;beneficiary
0883;Ms Amber Torres;SHN;E Fowler Avenue 15;64497;Weatherby;029-047-860;ATorres@msn.com;1964-11-02;customer
0884;Mrs Freya White;NZL;Steele Lane 22;68001;Abie;;FWhite@gmail.com;1959-07-26;customer
0885;Mrs Hannah Rogers;POL;Hutchinson Rd 38;13826;Ouaquaga;;HRogers@gmail.com;1966-06-24;beneficiary
0886;Ms Olivia Kelly;VEN;San Diego Freeway 48;18342;Mountainhome;045-640-974;OKelly@gmail.com;1966-09-17;customer
0887;Mr Allen Sanders;GAB;Monroe Street 14;14736;Findley Lake;553-339-278;ASanders@yahoo.com;1952-02-09;prospect
0888;Mr Jesus Griffin;ITA;Burnett Road 24;25966;Green Sulphur Springs;;JGriffin@msn.com;1976-01-27;beneficiary
0889;Mr Julien Taylor;GLP;Katella Avenue 16;98622;Heisson;;JTaylor@msn.com;1957-10-30;beneficiary
0890;Mrs Phoebe Perez;DMA;East 1st Street 7;55036;Henriette;;PPerez@msn.com;1978-09-27;beneficiary
0891;Mr Dylon Walker;TJK;Cleveland Ave. 8;92530;Lake Elsinore;;DWalker@yahoo.com;1999-08-11;beneficiary
0892;Mr Derrick Jackson;FJI;San Luis Obispo North 11;78384;San Diego;129-857-961;DJackson@yahoo.com;1965-04-03;customer
0893;Mr Karl Cooper;GUM;San Luis Obispo North 29;83845;Moyie Springs;;KCooper@yahoo.com;1954-01-01;beneficiary
0894;Mrs Zara Jones;AFG;Via Real 1;97862;Milton Freewater;499-593-134;ZJones@yahoo.com;1955-11-25;customer
0895;Mr Karson Nelson;NER;Santa Ana Freeway 2;29667;Norris;378-041-905;KNelson@gmail.com;1971-03-02;customer
0896;Mr Eric Perez;VCT;Jones Road 24;28115;Mooresville;;EPerez@yahoo.com;1980-06-09;beneficiary
0897;Ms Eleanor Martin;ALB;East Fry Blvd. 34;02703;Attleboro;;EMartin@yahoo.com;1988-03-22;prospect
0898;Mr Alessandro Lee;BRA;East Fry Blvd. 50;49417;Grand Haven;291-242-342;ALee@msn.com;1969-08-25;customer
0899;Mrs Jade Garcia;BDI;East Main Street 24;01583;West Boylston;473-194-756;JGarcia@gmail.com;1958-02-27;prospect
0900;Mrs Ellie Simmons;RWA;Carpinteria Avenue 48;42283;South Union;697-104-809;ESimmons@yahoo.com;1988-02-10;customer
0901;Mrs Erin Ross;ROU;San Ysidro Blvd 42;53827;Woodman;;ERoss@yahoo.com;1991-05-16;prospect
0902;Mrs Rachel Phillips;EST;Cabrillo Highway 7;59451;Hilger;218-162-192;RPhillips@msn.com;1968-06-06;prospect
0903;Mr Johnathan Kelly;MWI;Lawrenceville Suwanee 50;89883;West Wendover;913-781-805;JKelly@gmail.com;1972-02-23;prospect
0904;Ms Aaliyah Wood;YEM;E Fowler Avenue 7;22957;Montpelier Station;;AWood@msn.com;1991-03-28;beneficiary
0905;Mrs Naomi Washington;BMU;Harry S Truman Blvd 40;24984;Waiteville;;NWashington@yahoo.com;1991-03-24;prospect
0906;Mr Eliseo Cox;BMU;Jones Road 2;51014;Cleghorn;740-851-294;ECox@msn.com;1965-08-24;prospect
0907;Mr Kaiden Harris;FSM;Steele Lane 48;63349;Hawk Point;;KHarris@yahoo.com;1969-09-25;beneficiary
0908;Mrs Aimee Hernandez;KNA;Santa Monica Road 11;15715;Big Run;305-261-235;AHernandez@msn.com;1973-03-25;prospect
0909;Ms Harriet Russell;MEX;Castillo Drive 47;33843;Frostproof;720-620-559;HRussell@msn.com;1965-01-17;prospect
0910;Mr Edward Lewis;NIU;Steele Lane 46;80545;Red Feather Lakes;911-044-081;ELewis@gmail.com;1954-04-07;prospect
0911;Mr Justyn Taylor;BIH;Santa Rosa South 43;88046;Mesilla;;JTaylor@msn.com;1999-04-24;prospect
0912;Mr Antonio Martinez;NZL;Steele Lane 37;02805;Foster;;AMartinez@yahoo.com;1988-08-10;prospect
0913;Mr Elliott Hall;ANT;North Ventu Park Road 49;64428;Burlington Junction;;EHall@gmail.com;1965-06-29;beneficiary
0914;Mr Aron Lopez;BDI;N Kentwood 42;18853;Wyalusing;;ALopez@msn.com;1980-04-29;beneficiary
0915;Ms Kate Hernandez;BLR;Monroe Street 36;76101;Fort Worth;;KHernandez@yahoo.com;1990-03-09;customer
0916;Mr Edwin Rogers;TCD;East Calle Primera 3;13450;Roseboom;;ERogers@msn.com;1952-12-02;beneficiary
0917;Mrs Louise Barnes;CIV;San Luis Obispo North 42;60062;Northbrook;409-973-929;LBarnes@gmail.com;1964-09-16;prospect
0918;Mr Justus Price;GBR;Jean de la Fontaine 42;35007;Alabaster;600-945-157;JPrice@yahoo.com;1955-01-31;customer
0919;Mrs Emily Simmons;LTU;Fairview Avenue 40;29638;Donalds;;ESimmons@msn.com;1992-07-10;beneficiary
0920;Mr Asa Cooper;LIE;Cleveland Ave. 40;86325;Cornville;056-321-023;ACooper@gmail.com;1975-03-13;customer
0921;Mr Allan Ramirez;PRY;Santa Monica Road 41;13814;North Norwich;;ARamirez@gmail.com;1989-01-30;beneficiary
0922;Mr Angel Evans;LTU;Harry S Truman Blvd 1;52501;Ottumwa;921-467-411;AEvans@gmail.com;1986-03-06;customer
0923;Ms Yasmin Bennett;EGY;Via Real 50;49680;South Boardman;396-456-797;YBennett@gmail.com;1971-03-17;customer
0924;Mr Alberto Rivera;NIC;Greenwood Road 14;54725;Boyceville;239-918-859;ARivera@gmail.com;1975-10-12;customer
0925;Ms Rebecca Williams;MTQ;Greenwood Road 48;19354;Lyndell;996-464-425;RWilliams@gmail.com;1989-06-09;customer
0926;Ms Summer Ramirez;MNP;San Marcos 8;52171;Waucoma;276-038-898;SRamirez@yahoo.com;1959-01-15;customer
0927;Mr Alvin Foster;BMU;S Rustle St 46;24732;Kellysville;;AFoster@yahoo.com;1987-12-29;prospect
0928;Mr Amarion Jenkins;NAM;Jones Road 40;91350;Santa Clarita;;AJenkins@gmail.com;1982-01-20;beneficiary
0929;Mrs Danielle Hernandez;TZA;Corona Del Mar 5;18473;White Mills;;DHernandez@yahoo.com;1989-04-25;prospect
0930;Mr Donovan Torres;PRI;South Roosevelt Drive 40;44251;Westfield Center;;DTorres@msn.com;1994-02-14;beneficiary
0931;Ms Jessica Reed;FRA;Greenwood Road 44;77627;Nederland;;JReed@gmail.com;1970-11-19;beneficiary
0932;Mrs Jessica Young;TKM;Fairview Avenue 29;38390;Yuma;841-284-820;JYoung@gmail.com;1954-02-14;customer
0933;Mr Johan Murphy;DNK;Jones Road 43;15379;West Middletown;796-560-489;JMurphy@gmail.com;1953-05-23;prospect
0934;Mrs Kayleigh Ramirez;IRL;Jones Road 45;78560;La Joya;02-487-817;KRamirez@yahoo.com;1980-07-21;customer
0935;Mr Eddie Hayes;MSR;San Luis Obispo North 22;31318;Meldrim;;EHayes@gmail.com;1976-01-12;beneficiary
0936;Mr Antoine Alexander;GRD;San Luis Obispo North 44;50040;Boxholm;;AAlexander@yahoo.com;1991-07-13;beneficiary
0937;Ms Daisy Edwards;COK;Castillo Drive 8;15616;Armbrust;142-411-341;DEdwards@msn.com;1978-04-07;prospect
0938;Mr Arthur Rivera;YEM;Westside Freeway 6;17881;Trevorton;242-066-519;ARivera@yahoo.com;1992-11-30;customer
0939;Mr Efren Griffin;BOL;Westside Freeway 49;80474;Rollinsville;;EGriffin@gmail.com;1982-07-12;prospect
0940;Ms Megan Sanders;GRD;Santa Rosa North 37;29801;Aiken;993-759-473;MSanders@gmail.com;1979-10-22;prospect
0941;Mr Anton White;TJK;North Broadway Street 1;83809;Careywood;;AWhite@yahoo.com;1994-06-01;beneficiary
0942;Ms Tia Cox;TUN;Milpas Street 45;50482;Ventura;;TCox@gmail.com;1959-04-15;beneficiary
0943;Mr Drake Wood;NRU;Carpinteria Avenue 3;02740;New Bedford;167-062-128;DWood@yahoo.com;1984-10-02;customer
0944;Mrs Isabel Lewis;EGY;El Camino Real 18;57040;Lesterville;726-085-047;ILewis@msn.com;1982-12-17;customer
0945;Mr Alvin Reed;BIH;East Main Street 8;40448;McKinney;;AReed@gmail.com;2000-03-19;prospect
0946;Mr Johan Diaz;BRB;Monroe Street 45;01745;Fayville;337-686-017;JDiaz@yahoo.com;1974-04-26;customer
0947;Mrs Hannah Bell;MNP;El Camino Real 33;33572;Apollo Beach;738-487-918;HBell@gmail.com;1963-07-25;prospect
0948;Mr Jeffery Lewis;HKG;San Luis Obispo North 15;71327;Cottonport;307-051-098;JLewis@msn.com;1974-02-17;customer
0949;Mrs Erin Nelson;LIE;Carpinteria Avenue 48;42326;Browder;;ENelson@msn.com;1969-03-15;beneficiary
0950;Mr Declan Morgan;DZA;North Erringer Road 41;58795;Wildrose;755-577-226;DMorgan@gmail.com;1966-03-31;prospect
0951;Mrs Hannah Edwards;NOR;Burnett Road 42;30708;Cisco;810-058-024;HEdwards@yahoo.com;1980-01-01;prospect
0952;Ms Jade Taylor;KAZ;Carpinteria North 41;32140;Florahome;622-678-239;JTaylor@msn.com;1978-05-05;prospect
0953;Mrs Lara Adams;BTN;South Highway 50;54408;Aniwa;;LAdams@msn.com;1993-06-07;beneficiary
0954;Mr Jett Perez;CXR;Carpinteria South 27;14134;Sardinia;;JPerez@msn.com;1986-03-03;beneficiary
0955;Mr Adriel Adams;TUV;Grandview Drive 34;46345;Kingsbury;576-800-517;AAdams@msn.com;1992-01-01;customer
0956;Mr Aidan Wilson;CYM;Lawrenceville Suwanee 23;85629;Sahuarita;310-574-968;AWilson@yahoo.com;1981-07-19;prospect
0957;Mrs Alicia Gonzalez;MDG;Monroe Street 46;08202;Avalon;710-362-120;AGonzalez@yahoo.com;1978-06-08;prospect
0958;Ms Amber Scott;BEN;Santa Rosa North 22;03816;Center Tuftonboro;241-529-857;AScott@yahoo.com;1971-09-22;customer
0959;Mr Justyn Griffin;MYS;Jones Road 19;43360;Zanesfield;561-744-124;JGriffin@yahoo.com;1980-09-27;customer
0960;Mrs Charlie Martin;SVN;East Calle Primera 42;80621;Fort Lupton;;CMartin@yahoo.com;1969-09-12;beneficiary
0961;Mrs Bethany Thompson;STP;Santa Monica Road 27;24919;Ballengee;;BThompson@msn.com;1987-03-15;prospect
0962;Ms Hannah Cooper;BEL;Bailard Avenue 21;83221;Blackfoot;487-543-112;HCooper@msn.com;1969-09-15;prospect
0963;Mr Edgar Turner;KNA;Moreno Drive 50;64724;Appleton City;762-368-697;ETurner@gmail.com;1972-04-17;customer
0964;Mr Keagan Lee;YEM;W. Russell St. 17;21105;Maryland Line;526-712-507;KLee@msn.com;1961-10-01;prospect
0965;Mrs Harriet Long;BOL;Fairview Avenue 27;97004;Beavercreek;160-780-727;HLong@gmail.com;1952-03-16;prospect
0966;Ms Morgan Murphy;JOR;Corona Del Mar 6;57257;Peever;752-149-203;MMurphy@yahoo.com;1980-05-05;customer
0967;Mr Jesus Barnes;UGA;Lawrenceville Suwanee 14;59422;Choteau;;JBarnes@yahoo.com;1990-03-21;beneficiary
0968;Mrs Lydia Washington;UKR;San Diego Freeway 16;74447;Okmulgee;;LWashington@yahoo.com;1998-12-02;beneficiary
0969;Mrs Abby Rogers;JOR;Jones Road 49;52030;Andrew;963-375-290;ARogers@msn.com;1956-02-14;prospect
0970;Mr Jeff James;REU;Jean de la Fontaine 25;46795;Wolcottville;814-218-602;JJames@msn.com;1975-12-09;customer
0971;Mrs Zoe Perez;AGO;Calle Real 12;38220;Atwood;556-647-338;ZPerez@msn.com;1970-12-31;prospect
0972;Mr Arthur Coleman;CCK;Pacific Hwy S 29;74041;Kiefer;;AColeman@msn.com;1981-12-15;beneficiary
0973;Mr Jaylin Patterson;UZB;Lake Tahoe Blvd. 21;98328;Eatonville;943-426-223;JPatterson@yahoo.com;1973-04-17;prospect
0974;Ms Naomi Johnson;ATG;Redwood Highway 32;78843;Laughlin A F B;;NJohnson@msn.com;1975-06-26;beneficiary
0975;Mrs Isabel Murphy;MUS;French Camp Turnpike Road 44;47984;Talbot;547-938-803;IMurphy@yahoo.com;1960-02-07;prospect
0976;Mrs Chelsea Patterson;EST;North Ventu Park Road 11;19406;King Of Prussia;;CPatterson@yahoo.com;1973-03-15;beneficiary
0977;Mr Joaquin Morris;MDA;Bailard Avenue 23;08068;Pemberton;;JMorris@gmail.com;1992-05-18;beneficiary
0978;Ms Isabella Hill;MCO;Bailard Avenue 40;06339;Ledyard;;IHill@yahoo.com;1960-02-01;beneficiary
0979;Ms Eve Walker;MDV;Timberlane Drive 8;49917;Copper City;076-115-375;EWalker@gmail.com;1987-03-14;customer
0980;Mr Adan Perez;ESP;El Camino Real 7;77583;Rosharon;;APerez@msn.com;1983-06-18;beneficiary
0981;Mrs Niamh Reed;PHL;Cerrillos Road 48;97909;Jamieson;447-165-850;NReed@msn.com;1980-11-15;prospect
0982;Ms Ellie Thompson;BRN;South Highway 16;02041;Green Harbor;;EThompson@yahoo.com;1980-04-12;beneficiary
0983;Mr Albert Campbell;MDV;W. Russell St. 48;33042;Summerland Key;;ACampbell@msn.com;1971-10-20;beneficiary
0984;Mr Joaquin Martin;CCK;Tanger Blvd 30;18091;Wind Gap;;JMartin@yahoo.com;1992-08-07;prospect
0985;Mr Dylon Cooper;TUR;El Camino Real 23;88002;White Sands Missile Range;927-391-388;DCooper@gmail.com;1963-01-31;prospect
0986;Mr Jayson Lee;IDN;San Diego Freeway 48;21727;Emmitsburg;998-532-861;JLee@gmail.com;1958-12-05;customer
0987;Mr Josef Collins;NIC;W. Russell St. 2;15428;Dawson;;JCollins@gmail.com;1993-02-22;beneficiary
0988;Mr Josue Long;MLT;Fontaine Road 9;55387;Waconia;883-499-938;JLong@gmail.com;1966-06-11;prospect
0989;Mr Elmer Parker;CAN;Lawrenceville Suwanee 49;19423;Cedars;993-807-959;EParker@msn.com;1987-06-29;customer
0990;Mr Elias Cook;BOL;San Simeon 17;46124;Edinburgh;728-045-144;ECook@yahoo.com;1955-02-01;customer
0991;Mr Amir Moore;BVT;East Fry Blvd. 50;0659;Hatillo;082-609-570;AMoore@yahoo.com;1985-04-18;customer
0992;Mrs Mollie Nelson;BRA;Erringer Road 27;07205;Hillside;787-847-461;MNelson@gmail.com;1972-05-13;prospect
0993;Mr Jefferson Reed;TWN;East Fry Blvd. 1;36758;Plantersville;;JReed@gmail.com;1985-04-25;prospect
0994;Mr Alfredo Cox;LCA;S Rustle St 49;03042;Epping;089-237-398;ACox@gmail.com;1965-07-11;customer
0995;Mr Josue Green;NZL;Hutchinson Rd 30;51044;Oto;;JGreen@gmail.com;1993-03-09;beneficiary
0996;Mrs Alice Rodriguez;HMD;Timberlane Drive 10;17066;Mount Union;487-333-260;ARodriguez@msn.com;1968-07-13;prospect
0997;Ms Alexandra Hernandez;DOM;Jean de la Fontaine 35;98264;Lynden;;AHernandez@msn.com;1967-06-29;beneficiary
0998;Mrs Amelia Hernandez;CXR;San Ysidro Blvd 14;27869;Rich Square;;AHernandez@yahoo.com;1984-06-24;beneficiary
0999;Mr Alexis Harris;TJK;North Erringer Road 7;18248;Sheppton;047-401-048;AHarris@msn.com;1985-01-28;customer
